{
"type": "FeatureCollection",
"name": "build",
"crs": { "type": "name", "properties": { "name": "urn:ogc:def:crs:OGC:1.3:CRS84" } },
"features": [
{"type":"Feature","properties":{"fid":1,"name_id":null,"build_type":"house","is_landmark":false},"geometry":{"type":"Polygon","coordinates":[[[0.020773104902529,-0.013719496496289],[0.020781887513625,-0.013804813287332],[0.021691515091433,-0.014246453146359],[0.021739192123097,-0.013709459226752],[0.020773104902529,-0.013719496496289]]]}},
{"type":"Feature","properties":{"fid":2,"name_id":null,"build_type":"house","is_landmark":false},"geometry":{"type":"Polygon","coordinates":[[[0.021840819480066,-0.013710713885444],[0.021795651765858,-0.014197521457474],[0.022370285463287,-0.013991757432306],[0.022362757510919,-0.013688130028986],[0.022124372352597,-0.013700676615907],[0.022119353717685,-0.013929024497767],[0.022039055559092,-0.013921496545622],[0.022049092828916,-0.013703185933292],[0.021840819480066,-0.013710713885444]]]}},
{"type":"Feature","properties":{"fid":3,"name_id":"build_patryci","build_type":"patriciy","is_landmark":true},"geometry":{"type":"Polygon","coordinates":[[[0.016076917283584,-0.011096005157763],[0.016311538465722,-0.011346936898553],[0.016583799409701,-0.011691968041782],[0.016739377091974,-0.011586576710804],[0.016682917449213,-0.011467384134055],[0.016815911274383,-0.011373284731323],[0.016761960949078,-0.011299259867819],[0.016884917504423,-0.011201396488921],[0.016631476441365,-0.010878949201809],[0.016522321132028,-0.010963011335058],[0.016437004338523,-0.010906551693326],[0.01629397324353,-0.011026998929009],[0.016201128497657,-0.010968029969879],[0.016076917283584,-0.011096005157763]]]}},
{"type":"Feature","properties":{"fid":4,"name_id":"build_assassins","build_type":"guild","is_landmark":true},"geometry":{"type":"Polygon","coordinates":[[[0.016376780719579,-0.012178775617686],[0.016582544750973,-0.012520042783778],[0.016953923734464,-0.012361955787775],[0.016793327417278,-0.012003123399676],[0.016376780719579,-0.012178775617686]]]}},
{"type":"Feature","properties":{"fid":5,"name_id":"build_post","build_type":"house","is_landmark":true},"geometry":{"type":"Polygon","coordinates":[[[0.017247513876818,-0.011829980498955],[0.017465824495492,-0.012299222852827],[0.017716756241094,-0.012244017870061],[0.017603836955573,-0.011952937051652],[0.017475861765316,-0.011712042581011],[0.017247513876818,-0.011829980498955]]]}},
{"type":"Feature","properties":{"fid":6,"name_id":null,"build_type":"house","is_landmark":false},"geometry":{"type":"Polygon","coordinates":[[[0.020794492134212,-0.013898491502682],[0.020812629856754,-0.014029989987209],[0.020891982392878,-0.014333796830489],[0.021030282527264,-0.014630802027635],[0.021222995829279,-0.014388209996408],[0.02130461558072,-0.014145617964922],[0.020794492134212,-0.013898491502682]]]}},
{"type":"Feature","properties":{"fid":7,"name_id":null,"build_type":"house","is_landmark":false},"geometry":{"type":"Polygon","coordinates":[[[0.021381700901526,-0.014186427839396],[0.021313684441991,-0.014383675565915],[0.021628827371167,-0.014619465951415],[0.021676438892841,-0.014320193539008],[0.021381700901526,-0.014186427839396]]]}},
{"type":"Feature","properties":{"fid":8,"name_id":null,"build_type":"house","is_landmark":false},"geometry":{"type":"Polygon","coordinates":[[[0.021847613649336,-0.0135595428224],[0.021815872634887,-0.013078893188012],[0.022321461650759,-0.013146909645765],[0.02236227152648,-0.013360027879937],[0.02231012557417,-0.013378165601986],[0.022312392789488,-0.013557275607145],[0.021847613649336,-0.0135595428224]]]}},
{"type":"Feature","properties":{"fid":9,"name_id":null,"build_type":"house","is_landmark":false},"geometry":{"type":"Polygon","coordinates":[[[0.021169534594047,-0.013026748426309],[0.021198908368973,-0.013366865811171],[0.021280845741136,-0.013419429406971],[0.021344231255451,-0.013575574206195],[0.021430806592076,-0.013578666182416],[0.02143235258023,-0.013365319823059],[0.0213055815516,-0.013244732750297],[0.021321041433141,-0.013079312022181],[0.021169534594047,-0.013026748426309]]]}},
{"type":"Feature","properties":{"fid":10,"name_id":null,"build_type":"house","is_landmark":false},"geometry":{"type":"Polygon","coordinates":[[[0.02139370287638,-0.013107139808227],[0.021390610900071,-0.013249370714635],[0.021515835940547,-0.013369957787395],[0.021509651987931,-0.013570936241863],[0.021741550211034,-0.013570936241863],[0.021727636317648,-0.013227726881056],[0.02139370287638,-0.013107139808227]]]}},
{"type":"Feature","properties":{"fid":11,"name_id":"build_opera","build_type":"house","is_landmark":true},"geometry":{"type":"Polygon","coordinates":[[[0.012481081168456,-0.014347022272142],[0.012739261190178,-0.014824732596253],[0.013002079176361,-0.014690231631315],[0.012960337496202,-0.01462066216666],[0.012992803247437,-0.014602110309415],[0.012804192692646,-0.014260446938215],[0.012771726941412,-0.01427436083117],[0.012734623225715,-0.014201699390174],[0.012481081168456,-0.014347022272142]]]}},
{"type":"Feature","properties":{"fid":12,"name_id":"house_citywatch","build_type":"citywatch","is_landmark":true},"geometry":{"type":"Polygon","coordinates":[[[0.013104259614548,-0.014316459509239],[0.013133575906549,-0.014365319994377],[0.013186345232151,-0.014646756388565],[0.013444328601759,-0.014795292263134],[0.013403285792957,-0.014441542351171],[0.013510778863627,-0.014420043737719],[0.013477553732693,-0.014263690185279],[0.013436510923892,-0.014167923634357],[0.013379832759357,-0.014099518955103],[0.013104259614548,-0.014316459509239]]]}},
{"type":"Feature","properties":{"fid":13,"name_id":null,"build_type":"house","is_landmark":false},"geometry":{"type":"Polygon","coordinates":[[[0.019086737602195,-0.013173124154122],[0.01912582599153,-0.01362459503859],[0.019461986139806,-0.013608959683297],[0.019620294116611,-0.013233711155982],[0.019497165690207,-0.013196577187102],[0.019356447488603,-0.013171169734707],[0.019198139511798,-0.013167260895877],[0.019086737602195,-0.013173124154122]]]}}
]
}
