{
"type": "FeatureCollection",
"name": "groung",
"crs": { "type": "name", "properties": { "name": "urn:ogc:def:crs:OGC:1.3:CRS84" } },
"features": [
{"type":"Feature","properties":{"fid":1},"geometry":{"type":"Polygon","coordinates":[[[0.002386226160353,-0.020627376787733],[0.003206534185342,-0.021987887564334],[0.004557041299653,-0.023878597372831],[0.005487390645068,-0.024969006721596],[0.006687841413345,-0.025999393529098],[0.008138386091679,-0.026879723998762],[0.01043925006421,-0.027379911762803],[0.012703225185007,-0.027711911390036],[0.014220669984282,-0.027690028175463],[0.01677162786687,-0.027179836657435],[0.018542292750078,-0.026629630115971],[0.020392987684505,-0.025539220781136],[0.021693476016805,-0.024118687505425],[0.022513784041794,-0.022798191771028],[0.02323405450276,-0.02135765095608],[0.024094377553358,-0.0192668659995],[0.024594565373474,-0.016555848147197],[0.024674595424692,-0.013994886599434],[0.024584561617071,-0.012274240543513],[0.024204418873784,-0.010773677113562],[0.023634204758852,-0.009253106163678],[0.022963953079898,-0.008122681703231],[0.022123637542104,-0.007052279777585],[0.021213295709494,-0.006021892874868],[0.019712732249148,-0.004701397035575],[0.017741992237894,-0.003590980077843],[0.015801263495846,-0.002950739669142],[0.01391055353581,-0.00247055936237],[0.012720106523936,-0.002450551849584],[0.011109501743164,-0.002700645759389],[0.008758618988622,-0.00346093124486],[0.007763063225098,-0.003988150643871],[0.007273899952854,-0.004261606500215],[0.006739647052148,-0.004161649252401],[0.006235202946762,-0.004128169581212],[0.005727618256455,-0.004150243862331],[0.005133594159834,-0.004245631188307],[0.004668396012894,-0.004410616219656],[0.00419173420832,-0.004697683426617],[0.003965253930875,-0.004888346940776],[0.003618372831008,-0.00533584660658],[0.003431866576386,-0.005726713644691],[0.003328620345014,-0.006087994998207],[0.003271739324088,-0.006582696975049],[0.003264873202056,-0.00725156628265],[0.003337164272511,-0.007914116383573],[0.003475046541996,-0.00860469763543],[0.003309072688466,-0.008975501927026],[0.003113999438621,-0.009470687862523],[0.002858903650362,-0.010273489301885],[0.002626316314008,-0.011166324545155],[0.002476259967974,-0.011931611894379],[0.002371220525749,-0.012631874826448],[0.002266181083525,-0.013429674378893],[0.002108621920189,-0.014257485197013],[0.002008584356166,-0.015107804463282],[0.001956064635054,-0.01585558522705],[0.00202859186897,-0.017233602613985],[0.002073608772781,-0.019069291821611],[0.002386226160353,-0.020627376787733]]]}}
]
}
