{
"type": "FeatureCollection",
"name": "water",
"crs": { "type": "name", "properties": { "name": "urn:ogc:def:crs:OGC:1.3:CRS84" } },
"features": [
{"type":"Feature","properties":{"fid":1,"name_id":"water_ank"},"geometry":{"type":"Polygon","coordinates":[[[0.012703225185007,-0.027711911390036],[0.012714479410959,-0.027548099897995],[0.012893296556651,-0.027558103653241],[0.012887044208899,-0.027444310937273],[0.012814516974982,-0.027265493811961],[0.012619443725137,-0.027224228321467],[0.012580679169078,-0.02706041682876],[0.01245813315315,-0.027054164481706],[0.012463135031351,-0.026982887725265],[0.012553168838972,-0.026975384908795],[0.012628197011989,-0.026875347355818],[0.01254316508257,-0.026586488921138],[0.012446878927198,-0.026582737512891],[0.012438125640346,-0.026492703714928],[0.012604438090534,-0.026492703714928],[0.012653206402995,-0.026513961695008],[0.0126732139158,-0.026575234696397],[0.012869537635195,-0.02655897859399],[0.012883292800248,-0.026630255350679],[0.012698223306806,-0.026654014269566],[0.012720731758711,-0.026720289148542],[0.012910803130355,-0.026704033046155],[0.012923307825857,-0.026781562149827],[0.012743240210616,-0.026801569660445],[0.012768249601622,-0.026889102519357],[0.012858283409242,-0.026899106274657],[0.013072113702342,-0.026882850172294],[0.012955820034165,-0.02638641381447],[0.012504400526511,-0.026360153956696],[0.012521907100215,-0.026030030029922],[0.012750743027918,-0.026040033785292],[0.012751993497468,-0.025946248578671],[0.013037100554934,-0.025956252334047],[0.013045853841786,-0.025766180981765],[0.012954569564615,-0.025731167837893],[0.012764498192971,-0.025714911735377],[0.012772001010273,-0.025632380753344],[0.0124593836227,-0.025554851648961],[0.012469387379103,-0.025476072075104],[0.012339338545873,-0.025464817850263],[0.012345590893624,-0.025334769029812],[0.012479391135505,-0.025343522315808],[0.012529409917517,-0.024713285722597],[0.012595684803682,-0.024717037130899],[0.012623195133788,-0.024373158036124],[0.012703225185007,-0.024380660852747],[0.012606939029635,-0.025377284990359],[0.012852031061491,-0.025413548603755],[0.013054607128638,-0.025408546726046],[0.013157145631761,-0.024934618812224],[0.012997085529324,-0.024910859893016],[0.012984580833822,-0.025053413408198],[0.012909552660804,-0.025044660122183],[0.012948317216863,-0.024496954510345],[0.01302209492033,-0.024500705918653],[0.012998335998875,-0.024817074685575],[0.013178403614116,-0.024839583135367],[0.013205913944223,-0.02433814489188],[0.01258943245593,-0.02419809231481],[0.012619443725137,-0.023802943971588],[0.01254316508257,-0.023787938338278],[0.012538163204369,-0.023932992793534],[0.012463135031351,-0.023931742324092],[0.012479391135505,-0.023664141863414],[0.012628197011989,-0.023705407355048],[0.012641952177043,-0.023467818160625],[0.012758245845219,-0.02349282754953],[0.012756995375669,-0.023309008540969],[0.012650705463895,-0.023285249621478],[0.012659458750747,-0.022923863950828],[0.012774501949373,-0.022928865828629],[0.012787006644876,-0.022717536491396],[0.0126757148549,-0.022687525224545],[0.012625696072889,-0.022462440722965],[0.012528159447966,-0.022487450112047],[0.012570675412676,-0.022604994240673],[0.012503150056961,-0.022622500813014],[0.012383104980133,-0.022272369365805],[0.012445628457647,-0.02225236185451],[0.012503150056961,-0.022412421944789],[0.012605688560084,-0.022374907861145],[0.012548166960771,-0.022137318664515],[0.012733236454214,-0.022054787680334],[0.012658208281196,-0.021739669376675],[0.012518155691564,-0.021529590507203],[0.011376476992151,-0.021902230406423],[0.011444002347866,-0.02211856162266],[0.011326458210139,-0.022172331809306],[0.011342714314293,-0.022522463256754],[0.011442751878316,-0.022509958562216],[0.011452755634718,-0.022583736259971],[0.011338962905642,-0.022599992362861],[0.011341463844743,-0.0228538376616],[0.011444002347866,-0.022865091886656],[0.011456507043369,-0.022797566536302],[0.011529034277286,-0.022811321700266],[0.011529034277286,-0.023302756193735],[0.011456507043369,-0.023301505724288],[0.011451505165168,-0.022972632259378],[0.011316454453737,-0.02294262099258],[0.011315203984187,-0.023369031074404],[0.011176401864105,-0.023361528257726],[0.011187656090057,-0.022991389301123],[0.010906300441242,-0.02295637615653],[0.010846277902829,-0.023008895873416],[0.01089754715439,-0.023406545157787],[0.010890044337089,-0.023709158763377],[0.010847528372379,-0.024129316495661],[0.010812515224971,-0.024274370950553],[0.010816266633622,-0.024334393483567],[0.011135136368945,-0.024454438549514],[0.011143889655797,-0.024380660852747],[0.010957569692804,-0.02431188503369],[0.010987580962011,-0.024240608275721],[0.011146390594898,-0.024308133625377],[0.011181403742306,-0.023541595857884],[0.011305200227784,-0.023542846327328],[0.011262059028299,-0.024596366830469],[0.010906300441242,-0.024468818948032],[0.010889419102313,-0.02481082233841],[0.011083867117383,-0.024796441939929],[0.011098872751987,-0.024694528681086],[0.011226420646116,-0.024717037130899],[0.011206413133312,-0.024885225269656],[0.011020718405094,-0.024898980433411],[0.011008838944366,-0.025025903080719],[0.010876914406811,-0.025007146039253],[0.010890044337089,-0.024908984188868],[0.010832522737775,-0.024912735597164],[0.010816266633622,-0.025080298500957],[0.010800010529468,-0.025314136284248],[0.010787505833965,-0.025447936513001],[0.010971324857857,-0.025497955290069],[0.010971324857857,-0.025274121262538],[0.011050104439526,-0.02528162407911],[0.011042601622224,-0.025506708576054],[0.01115514388175,-0.02550795904548],[0.011153893412199,-0.02562675364093],[0.010957569692804,-0.025623002232655],[0.010785004894864,-0.02558298721104],[0.010769999260261,-0.02585183813727],[0.010957569692804,-0.02586934470919],[0.010953818284153,-0.026001894467941],[0.010647453244333,-0.025975634610086],[0.010629946670629,-0.026302007128748],[0.010905049971692,-0.026328266986534],[0.010901298563041,-0.026384538110344],[0.010835023676876,-0.026379536232673],[0.010828771329124,-0.02653709537921],[0.01094131358865,-0.026545848665122],[0.010933810771349,-0.026610873074741],[0.010746240338805,-0.026604620727664],[0.010731234704202,-0.026782187384534],[0.010816266633622,-0.026810948181045],[0.010813765694521,-0.026952251224676],[0.010712477660948,-0.026961004510559],[0.010712477660948,-0.027116062717529],[0.010866285415633,-0.027147324452781],[0.010850029311479,-0.027278623740752],[0.010908801380343,-0.027321139700636],[0.010966322979656,-0.027326141578268],[0.011176401864105,-0.027369908007543],[0.011137637308046,-0.027558728887944],[0.011312703045086,-0.027584988745459],[0.011350217131595,-0.0273961678651],[0.011766623491841,-0.027444936171976],[0.011744115039936,-0.027640009399282],[0.011939188289781,-0.027658766440353],[0.011959195802585,-0.027461192274264],[0.012521907100215,-0.027526216683392],[0.012520656630665,-0.027698781461293],[0.012703225185007,-0.027711911390036]]]}},
{"type":"Feature","properties":{"fid":2,"name_id":"water_morpork_pool"},"geometry":{"type":"Polygon","coordinates":[[[0.012920806886757,-0.022763178626387],[0.012913304069455,-0.022941995757855],[0.01371485505119,-0.022992014535848],[0.013712354112089,-0.022471819243871],[0.013739864442196,-0.022415548118425],[0.013789883224207,-0.022394290137696],[0.013947442387544,-0.022379284504238],[0.01401871915191,-0.022356776054048],[0.014074990281673,-0.022310508684202],[0.014089995916276,-0.022260489905974],[0.014088745446726,-0.022079171834756],[0.013937438631141,-0.022064166201266],[0.013947442387544,-0.02223673098631],[0.013878666562278,-0.022244233803046],[0.013873664684077,-0.022061665262351],[0.01371485505119,-0.022055412915062],[0.01358355574841,-0.022230478639029],[0.013531036027298,-0.022250486150326],[0.013458508793381,-0.022252987089238],[0.013388482498565,-0.022259239436518],[0.013327209490601,-0.022257988967062],[0.013320957142849,-0.022789438484868],[0.013117130606152,-0.022770681443096],[0.012999586468425,-0.022748172992967],[0.012919556417207,-0.022730666420642],[0.012920806886757,-0.022763178626387]]]}},
{"type":"Feature","properties":{"fid":3,"name_id":"water_ank"},"geometry":{"type":"Polygon","coordinates":[[[0.011398985444056,-0.021761552592228],[0.012444377988097,-0.021413922081923],[0.012204287834442,-0.021033779364717],[0.012091745574916,-0.020806193921735],[0.011969199558987,-0.020868717395114],[0.012020468810549,-0.020960001666204],[0.011971700498088,-0.020980009177669],[0.01176537302229,-0.020639881482425],[0.011809139456551,-0.02061362162357],[0.011917930307426,-0.020792438757588],[0.012039225853804,-0.020726163875773],[0.011954193924384,-0.020542344863801],[0.011982954724041,-0.020524838291221],[0.011897922794621,-0.020401041813638],[0.011824145091154,-0.020264740641239],[0.011746615979036,-0.02029725284751],[0.011680341092871,-0.020228477026545],[0.011621569024007,-0.020128439468726],[0.011556544607392,-0.019978383131882],[0.011521531459984,-0.019820823978049],[0.011542789442339,-0.019684522805167],[0.011597810102552,-0.019550722571129],[0.011681591562421,-0.019406918581156],[0.012256821619571,-0.019572090146253],[0.012469387379103,-0.01908054604694],[0.012251805677353,-0.0189554990988],[0.012069237123011,-0.019156824685261],[0.012148016704679,-0.01920934440343],[0.012235549573199,-0.019050534779395],[0.01232558338082,-0.019088048863826],[0.012181779382536,-0.019345645576696],[0.012020468810549,-0.019258112713143],[0.011956694863485,-0.019345645576696],[0.011776627248243,-0.019259363182623],[0.01198170425449,-0.018912983136412],[0.012079240879413,-0.01848782351196],[0.011268936610826,-0.018449058957915],[0.011280190836779,-0.018534090882906],[0.011265185202175,-0.018649134075476],[0.011212665481063,-0.018777932432286],[0.011116379325691,-0.018882971868837],[0.010997584718413,-0.019000516000141],[0.010892545276189,-0.019103054497596],[0.01080751334677,-0.019201841586549],[0.010734986112853,-0.01932688853451],[0.010664959818037,-0.019471942994029],[0.010664959818037,-0.019660763885112],[0.010676214043989,-0.019835829611754],[0.010684967330841,-0.019860839001259],[0.010553668028061,-0.01987584463496],[0.010532410045706,-0.019653261068252],[0.010541163332558,-0.019515709425756],[0.010299822709353,-0.019360651210444],[0.010218542188584,-0.019862089470734],[0.010539912863008,-0.02008092162874],[0.010482391263695,-0.020153448858186],[0.010173525284773,-0.019935867169751],[0.010268560970595,-0.020344770687432],[0.010477389385493,-0.020346021156904],[0.01063619901838,-0.020726163875773],[0.010712477660948,-0.020722412467367],[0.010676214043989,-0.020606118806754],[0.010729984234652,-0.020604868337285],[0.01076624785161,-0.02071991152843],[0.010885042458887,-0.020712408711619],[0.010656206531185,-0.019994639235047],[0.010728733765101,-0.019977132662408],[0.01098257908381,-0.020813696738542],[0.010669961696238,-0.020824950963751],[0.010855031189681,-0.021221349784508],[0.010950066875502,-0.021193839456286],[0.01089504621529,-0.021073794387625],[0.0109400631191,-0.021046284059377],[0.011001336127064,-0.021176332883779],[0.011046353030875,-0.021157575841804],[0.010993833309763,-0.021023775608988],[0.011061358665478,-0.020998766219664],[0.011212665481063,-0.021350148139299],[0.011151392473099,-0.021378908936956],[0.011078865239182,-0.021228852601295],[0.011022594109419,-0.021250110582189],[0.011087618526034,-0.021356400486617],[0.011041351152673,-0.021381409875883],[0.010970074388307,-0.021267617154688],[0.010890044337089,-0.021295127482897],[0.011023844578969,-0.021577733581482],[0.011256431915323,-0.021476445555058],[0.011398985444056,-0.021761552592228]]]}},
{"type":"Feature","properties":{"fid":4,"name_id":"water_ank"},"geometry":{"type":"Polygon","coordinates":[[[0.011325207740589,-0.018314008253434],[0.012090495105365,-0.018354023276994],[0.012057982897058,-0.018168953792952],[0.011965448150337,-0.017891349566533],[0.011862909647213,-0.017703779143039],[0.01172035611848,-0.017543719048174],[0.011647828884563,-0.01741116928201],[0.011597810102552,-0.017223598858035],[0.011667836397368,-0.017028525616904],[0.011572800711546,-0.016885972094415],[0.011627821371759,-0.016830951436584],[0.011732860813983,-0.016968503081132],[0.011942939698431,-0.016885972094415],[0.012245553329601,-0.016848458009532],[0.012793258992627,-0.016865964582478],[0.012923307825857,-0.016870966460462],[0.012750743027918,-0.016090673493369],[0.012300573989814,-0.016078168798359],[0.011630322310859,-0.016035652835319],[0.011522781929535,-0.015387909632627],[0.011310202105985,-0.015507954705091],[0.011360220887997,-0.016240729833431],[0.011252680506672,-0.016395788051378],[0.011132635429845,-0.016625874439077],[0.011050104439526,-0.016858461765501],[0.011042601622224,-0.017103553786593],[0.011056356787277,-0.017309881253087],[0.011122631673442,-0.017558724682074],[0.011222669237465,-0.017862588768276],[0.011275188958577,-0.017998889942583],[0.011205162663761,-0.018025149801842],[0.011255181445773,-0.018133940647301],[0.011288944123631,-0.018121435952424],[0.011325207740589,-0.018314008253434]]]}},
{"type":"Feature","properties":{"fid":5,"name_id":"water_ank"},"geometry":{"type":"Polygon","coordinates":[[[0.01284827965284,-0.016130688517396],[0.013029597737632,-0.016835953314569],[0.013384731089914,-0.01681844674162],[0.013483518184387,-0.016844706601043],[0.013752369137699,-0.01678593453471],[0.01380085850633,-0.016836571600213],[0.013988707882703,-0.01677092890075],[0.013951193796194,-0.016729663407354],[0.014022470560561,-0.016699652139424],[0.01406591817189,-0.016754222969791],[0.014204881491698,-0.016702755075759],[0.014188783010749,-0.016672141810485],[0.014603938901445,-0.016560850025189],[0.014964074131928,-0.016410793685366],[0.015242928841642,-0.016224473729929],[0.015416744109132,-0.016088172554367],[0.015511779794954,-0.015960624665226],[0.015463011482493,-0.015931863866683],[0.015498024629901,-0.015888097434111],[0.015556796698765,-0.015925611519173],[0.015633075341332,-0.015811818794462],[0.015590559376623,-0.015784308465401],[0.015619320176279,-0.015736790624288],[0.015674340836492,-0.015764300953355],[0.015721858679403,-0.015693024191674],[0.015776879339615,-0.01556547630229],[0.01575312041816,-0.01554171738171],[0.015699350227498,-0.015614244612946],[0.015655583793237,-0.015582982875347],[0.015728111027154,-0.01546668921144],[0.015803139200172,-0.015524210808649],[0.015851907512633,-0.015404165736194],[0.015813142956574,-0.015384158224111],[0.015811892487024,-0.015350395547468],[0.015871915025437,-0.01535539742549],[0.015923184276999,-0.015249107517506],[0.015943191789804,-0.015074041786595],[0.016004464797768,-0.015072791317088],[0.016004464797768,-0.014903977933575],[0.015410491761381,-0.014896475116527],[0.015410491761381,-0.01496400046995],[0.015402988944079,-0.015030275353845],[0.015375478613973,-0.015087796951172],[0.015296699032305,-0.015090297890186],[0.015262936354447,-0.015195337328741],[0.015214168041986,-0.015294124419717],[0.015142891277619,-0.015396662919163],[0.015074115452353,-0.015467939680944],[0.01497407788833,-0.015537965973197],[0.014926560045419,-0.015484195784505],[0.014859034689704,-0.01555047066824],[0.014795260742639,-0.015600489448403],[0.01471272975232,-0.015621747429969],[0.014672714726711,-0.015640504472525],[0.014722733508722,-0.015760549544846],[0.014381355321494,-0.015920609641165],[0.01414876798514,-0.015993136872269],[0.01384490388442,-0.016064413633847],[0.013578553870209,-0.016093174432371],[0.013342215125204,-0.016089423023868],[0.013164648449063,-0.016064413633847],[0.013173401735915,-0.0161369408649],[0.01284827965284,-0.016130688517396]]]}},
{"type":"Feature","properties":{"fid":6,"name_id":"water_ank"},"geometry":{"type":"Polygon","coordinates":[[[0.015390484248576,-0.014736415019442],[0.01596945165036,-0.014743917836496],[0.015893173007792,-0.014503827690661],[0.015945692728904,-0.01449757534311],[0.015945692728904,-0.014403790129821],[0.016008216206419,-0.014405040599332],[0.016033225597425,-0.014311255386005],[0.016043229353827,-0.013957372514042],[0.016049114221232,-0.013887447710321],[0.016088606493544,-0.01367901627915],[0.016048336852134,-0.013644237953467],[0.016021971371472,-0.013574728842698],[0.016019470432371,-0.013354646207925],[0.015978204937212,-0.013087045731288],[0.015891922538242,-0.012846955583781],[0.01575312041816,-0.012610616844609],[0.01553678918596,-0.012384281861391],[0.014987833053384,-0.012800688211579],[0.015164149259974,-0.01300326427359],[0.015287945745453,-0.01322584784771],[0.015326710301512,-0.013398412640992],[0.015356721570719,-0.013558472739],[0.015455508665191,-0.01355597179997],[0.015473015238895,-0.013659760769717],[0.015354220631618,-0.013662261708746],[0.015390484248576,-0.014736415019442]]]}},
{"type":"Feature","properties":{"fid":7,"name_id":"water_ank"},"geometry":{"type":"Polygon","coordinates":[[[0.014840277646449,-0.012635626235008],[0.015350469222967,-0.012257984439732],[0.015120382825714,-0.0120529074381],[0.015132887521217,-0.011997886779099],[0.014937814271372,-0.01192786048581],[0.014945317088674,-0.011865337009643],[0.014872789854757,-0.01184282855822],[0.014850281402852,-0.011897849217251],[0.014510153685173,-0.01184282855822],[0.014382605791044,-0.011852832314408],[0.014155020332891,-0.011875340765831],[0.013949943326644,-0.011932862363902],[0.013914930179236,-0.011860335131549],[0.013852406701722,-0.011880342643924],[0.013852406701722,-0.011962873632457],[0.013263435543536,-0.012192960024598],[0.013233424274329,-0.01212418420088],[0.012950818155964,-0.012225472232167],[0.012985831303372,-0.012335513550065],[0.012474389257304,-0.012498074587785],[0.012634449359741,-0.013187083292681],[0.013682342842882,-0.012721908631865],[0.013637325939072,-0.012640628113087],[0.013697348477486,-0.012608115905569],[0.013739864442196,-0.0126793926682],[0.013859909519023,-0.012674390790121],[0.013838651536669,-0.012559347594284],[0.013908677831485,-0.01254059055148],[0.013927434874739,-0.012640628113087],[0.014084994038075,-0.012561848533324],[0.014302575739826,-0.012524334447715],[0.014437626451257,-0.012514330691551],[0.014672714726711,-0.012531837264837],[0.01471398022187,-0.012500575526826],[0.014840277646449,-0.012635626235008]]]}},
{"type":"Feature","properties":{"fid":8,"name_id":"water_cut"},"geometry":{"type":"Polygon","coordinates":[[[0.011316454453737,-0.015350395547468],[0.01150152394718,-0.015257860804048],[0.011426495774162,-0.014207466416545],[0.011213915950613,-0.014267488953106],[0.011316454453737,-0.015350395547468]]]}},
{"type":"Feature","properties":{"fid":9,"name_id":"water_ank"},"geometry":{"type":"Polygon","coordinates":[[[0.011203912194211,-0.014154946697042],[0.011428996713263,-0.014087421343377],[0.011361471357547,-0.013499700671775],[0.012479391135505,-0.013234601134329],[0.012314329154867,-0.012524334447715],[0.011539038033688,-0.012804439620137],[0.011454006104269,-0.012819445254365],[0.011378977931251,-0.012806940559175],[0.011273938489027,-0.012754420839369],[0.011208914072412,-0.012629373887408],[0.011166398107702,-0.012454308154562],[0.011121381203892,-0.012439302520313],[0.011126383082093,-0.012369276227138],[0.011191407498708,-0.012364274349053],[0.01120141125511,-0.012294248055858],[0.01042111825573,-0.012149193591325],[0.010408613560228,-0.012269238665427],[0.010351091960914,-0.012256733970211],[0.010318579752607,-0.012314255568202],[0.01037610135192,-0.012391784678517],[0.010386105108322,-0.012584356984688],[0.010401110742926,-0.012789433985907],[0.01046113328134,-0.012949494084307],[0.010561170845363,-0.013157072024267],[0.010746240338805,-0.013329636817597],[0.01093881264955,-0.013449681891147],[0.011183904681406,-0.01353721475724],[0.011203912194211,-0.014154946697042]]]}},
{"type":"Feature","properties":{"fid":10,"name_id":"water_ank"},"geometry":{"type":"Polygon","coordinates":[[[0.010423619194831,-0.012027898047647],[0.010427370603482,-0.011914105321054],[0.010491144550547,-0.011770301325843],[0.01054991661941,-0.011774052734414],[0.010578677419067,-0.011710278788689],[0.010521155819754,-0.011711529258213],[0.01076749832116,-0.011281367741574],[0.011016341761668,-0.01090622688352],[0.01115764482085,-0.01077492758309],[0.011325207740589,-0.010686144246577],[0.011517780051333,-0.010638626404489],[0.011640701247777,-0.010648753961142],[0.011915387354442,-0.01069996935737],[0.012041661978241,-0.010735727466609],[0.012133601776946,-0.010746009706434],[0.012228605898466,-0.010716911775652],[0.0123139731879,-0.010641804976561],[0.012379434593733,-0.010533770556074],[0.012414689916845,-0.010393239285296],[0.012403323200366,-0.010283482753456],[0.012372321930313,-0.010195554969699],[0.012326952217445,-0.010112584876361],[0.012266650663698,-0.010025716949041],[0.012193623248646,-0.009941751890397],[0.012136799454815,-0.009856037858285],[0.012064887504091,-0.009734433715479],[0.011999131019446,-0.009620752308804],[0.01258693151683,-0.009565723547034],[0.012700724245906,-0.009803312758194],[0.012633198890191,-0.009840826844152],[0.0126732139158,-0.00990460079027],[0.01276074678432,-0.009844578252747],[0.012823099523956,-0.009890191843644],[0.012929560173609,-0.009974627084032],[0.013047104311336,-0.010089670280895],[0.013110878258401,-0.010203463008187],[0.013168399857714,-0.010337263247918],[0.013174652205465,-0.01042979799312],[0.013173401735915,-0.010567349641343],[0.013159646570862,-0.01069989941139],[0.013124633423454,-0.010858709041466],[0.013074614641442,-0.010949993316984],[0.012984580833822,-0.011066286983015],[0.012889545148,-0.011140064685096],[0.012749492558367,-0.011181330179473],[0.012519406161114,-0.011212591917633],[0.012323082441719,-0.01121384238716],[0.012100498861768,-0.01124385365579],[0.011877915281816,-0.011300124784464],[0.01167784015377,-0.011381405303641],[0.011484017373476,-0.011517706481901],[0.0113752265226,-0.011640252495327],[0.011307701166885,-0.011777804142986],[0.01124392721982,-0.011899099686775],[0.011216416889714,-0.012040402742874],[0.011272688019477,-0.012059159785713],[0.011246428158921,-0.012205464719817],[0.010423619194831,-0.012027898047647]]]}},
{"type":"Feature","properties":{"fid":11,"name_id":"water_ank"},"geometry":{"type":"Polygon","coordinates":[[[0.011922649522751,-0.009471704855471],[0.012563172595374,-0.009424420489792],[0.012552786932481,-0.009050056311207],[0.012534103613055,-0.008288286432429],[0.012550667899872,-0.008136436868146],[0.011945440637532,-0.00789634671684],[0.011872913403615,-0.008211465040399],[0.011817679954994,-0.008550309674042],[0.011825927331326,-0.008960259440789],[0.011836026859958,-0.009048782448535],[0.011890419977319,-0.009314379170838],[0.011922649522751,-0.009471704855471]]]}},
{"type":"Feature","properties":{"fid":12,"name_id":"water_ank"},"geometry":{"type":"Polygon","coordinates":[[[0.012569424943126,-0.008038900244195],[0.012660709220297,-0.00756622275857],[0.012720731758711,-0.007276113825337],[0.012818268383633,-0.007045402195111],[0.013014592103029,-0.006815315799541],[0.012879541391597,-0.006140062246705],[0.012766999132071,-0.006156318350765],[0.012648204524794,-0.006201335254314],[0.01254566602167,-0.006271361548715],[0.012439376109896,-0.006392657094352],[0.012351843241376,-0.006492694657743],[0.012263059903305,-0.006651504289585],[0.012190532669388,-0.006794057817336],[0.012140513887377,-0.006915353362846],[0.012094246514016,-0.00701539092613],[0.012055481957957,-0.007165447271015],[0.01202547068875,-0.007280490468728],[0.012009214584597,-0.007388030849172],[0.012037975384253,-0.00740178601411],[0.012037975384253,-0.00749307029051],[0.012134261539626,-0.007484317003733],[0.012159270930631,-0.007560595645643],[0.012159270930631,-0.007631872409383],[0.012140513887377,-0.00770439964265],[0.012131760600525,-0.007723156685734],[0.012074239001212,-0.007700648234033],[0.012080491348963,-0.007594358323205],[0.012007964115046,-0.007583104097352],[0.011967949089437,-0.00779193251037],[0.012569424943126,-0.008038900244195]]]}},
{"type":"Feature","properties":{"fid":13,"name_id":"water_ank"},"geometry":{"type":"Polygon","coordinates":[[[0.012982079894721,-0.006118804264472],[0.013097123093348,-0.006764046548339],[0.013479766775736,-0.006661508045919],[0.01367233908648,-0.006644001472333],[0.013939939570242,-0.006598984568824],[0.014200037236702,-0.006493945127285],[0.014415117999351,-0.006298871878656],[0.014507652746073,-0.005998759188315],[0.014555170588984,-0.005656130533309],[0.014522658380676,-0.005396032868059],[0.014442628329458,-0.005095920177248],[0.014360097339139,-0.004910850684511],[0.014268813061968,-0.0047795513822],[0.01410500155088,-0.004628244567125],[0.013876165623177,-0.004533208881607],[0.013664836269178,-0.004471935873832],[0.013472263958434,-0.004388154414213],[0.013293446812743,-0.004254354172713],[0.013185906431418,-0.004048026697457],[0.013147141875359,-0.003905473169068],[0.013145891405809,-0.003717902736939],[0.013173401735915,-0.00345155272325],[0.01328219258679,-0.003050151998254],[0.013471013488884,-0.002573723100169],[0.013393484376766,-0.002524954787756],[0.013165898918613,-0.002504947274971],[0.012867036696094,-0.002528706196403],[0.012758245845219,-0.002586227795659],[0.012721982228261,-0.002881338609191],[0.012660709220297,-0.00316644566626],[0.012533161326168,-0.003424042393193],[0.012474389257304,-0.003644125033625],[0.012460634092251,-0.003899220821331],[0.012508151935162,-0.004109299705266],[0.012600686681883,-0.00434813938872],[0.01271698035006,-0.004529457472968],[0.01284577871374,-0.004628244567125],[0.013077115580543,-0.004678263348972],[0.013230923335228,-0.004718278374446],[0.013398486254967,-0.004804560773118],[0.013612316548066,-0.004873336598139],[0.013751118668148,-0.004994632144067],[0.013829898249817,-0.005167196941328],[0.013868662805875,-0.005331008451729],[0.013881167501378,-0.005499821840264],[0.013869913275426,-0.005664883820118],[0.013834900128018,-0.005804936409049],[0.013772376650503,-0.005929983363422],[0.013693597068835,-0.006005011536032],[0.013512278984043,-0.006061282665483],[0.013244678500282,-0.006093794873608],[0.012982079894721,-0.006118804264472]]]}},
{"type":"Feature","properties":{"fid":14,"name_id":"water_mort"},"geometry":{"type":"Polygon","coordinates":[[[0.010437374359884,-0.008672263064678],[0.010608023228597,-0.008794009913997],[0.010713329210816,-0.008804200815382],[0.010852604864719,-0.008743055407068],[0.010917147240917,-0.00864114639319],[0.010968101748443,-0.008416946562563],[0.010920055606296,-0.007979502941137],[0.010893795745739,-0.007706900581728],[0.010893795745739,-0.007560595645643],[0.01093881264955,-0.007376776623312],[0.010254805805542,-0.007089168629038],[0.010191031858477,-0.007406787892269],[0.010178527162975,-0.007649378982931],[0.010183529041176,-0.007835698944223],[0.010213540310383,-0.008055781582957],[0.010261058153294,-0.008264609995737],[0.010323581630808,-0.008482191695164],[0.010393607925624,-0.008612240526947],[0.010437374359884,-0.008672263064678]]]}},
{"type":"Feature","properties":{"fid":15,"name_id":"water_mort"},"geometry":{"type":"Polygon","coordinates":[[[0.010293570361601,-0.00696412167495],[0.01098132861426,-0.007251729669302],[0.011036349274472,-0.007046652664652],[0.01111137744749,-0.006906600076058],[0.011223919707016,-0.006824069086331],[0.01141649201776,-0.006716528705757],[0.011486518312576,-0.006581477995235],[0.011536537094588,-0.006348890660363],[0.01150277441673,-0.006221342767001],[0.011456507043369,-0.006157568820308],[0.011390232157204,-0.006108800508126],[0.011276439428128,-0.006073787360916],[0.011117629795241,-0.006057531256853],[0.010898797623941,-0.006121305203558],[0.010751242217007,-0.006228845584258],[0.010538662393458,-0.006431421650168],[0.010381103230121,-0.006694020254006],[0.010293570361601,-0.00696412167495]]]}},
{"type":"Feature","properties":{"fid":16,"name_id":"water_soot"},"geometry":{"type":"Polygon","coordinates":[[[0.008879289300225,-0.025858715719096],[0.008874287422024,-0.026273871566828],[0.008999334377053,-0.026283875322178],[0.009306949886424,-0.026366406303785],[0.009351966790234,-0.026233856545419],[0.009542038161878,-0.026251363117287],[0.009557043796481,-0.026098805848072],[0.00937947712034,-0.026063792704291],[0.009361970546636,-0.025928742006761],[0.008879289300225,-0.025858715719096]]]}},
{"type":"Feature","properties":{"fid":17,"name_id":"water_ankh_pool"},"geometry":{"type":"Polygon","coordinates":[[[0.009648328073652,-0.026112561011697],[0.0096395747868,-0.026273871566828],[0.009844651793048,-0.026302632363457],[0.009817141462941,-0.026442684938253],[0.009974700626278,-0.026447686815921],[0.009962195930775,-0.026527716858588],[0.010198534675779,-0.026538971083334],[0.010227295475436,-0.026478948551344],[0.010358594778216,-0.026485200898428],[0.010338587265411,-0.026267619219733],[0.01050364924605,-0.02628137438334],[0.010522406289304,-0.025960003742313],[0.01037610135192,-0.025947499048093],[0.01037735182147,-0.025847461494289],[0.010094745703105,-0.02574242206271],[0.010090994294454,-0.025699906102284],[0.009962195930775,-0.025671145305517],[0.009945939826621,-0.025722414551923],[0.009838399445296,-0.025729917368468],[0.009823393810693,-0.026131318053002],[0.009648328073652,-0.026112561011697]]]}},
{"type":"Feature","properties":{"fid":18,"name_id":"water_potato"},"geometry":{"type":"Polygon","coordinates":[[[0.009963446400325,-0.025596117140009],[0.010092244764005,-0.025623627467367],[0.010104749459508,-0.025548599301831],[0.010366097595518,-0.02549232817765],[0.010389856516973,-0.025187213637219],[0.010183529041176,-0.025158452840339],[0.010193532797578,-0.025082174205102],[0.010399860273376,-0.025103432185418],[0.010414865907979,-0.024897104729262],[0.01020353655398,-0.024878347687778],[0.010212289840832,-0.024804569991245],[0.010412364968878,-0.024814573746709],[0.010433622951233,-0.024649511781449],[0.01042111825573,-0.023880473076993],[0.010057231616597,-0.023827953360433],[0.010019717530088,-0.02424936156179],[0.009894670575059,-0.024265617664487],[0.009863408836302,-0.024598242534622],[0.009923431374716,-0.024605745351232],[0.009867160244953,-0.025249737108678],[0.009877164001355,-0.025387288745779],[0.009980952974029,-0.025406045787191],[0.009963446400325,-0.025596117140009]]]}},
{"type":"Feature","properties":{"fid":19,"name_id":"water_hide"},"geometry":{"type":"Polygon","coordinates":[[[0.008109000057247,-0.018503454380524],[0.008051478457934,-0.018569729263221],[0.008026469066928,-0.018684772455768],[0.008006461554124,-0.018797314709273],[0.008027719536479,-0.018921111188045],[0.007972698876266,-0.018983634662139],[0.007955192302562,-0.019032402971917],[0.007978951224017,-0.019156199450521],[0.008000209206372,-0.019279995929035],[0.00799020544997,-0.019338767994561],[0.008011463432325,-0.019456312125552],[0.008067734562088,-0.019568854378552],[0.008112751465898,-0.019628876913454],[0.008161519778359,-0.01969765273467],[0.008256555464181,-0.01975017245267],[0.008351591150003,-0.019778933250615],[0.00837910148011,-0.0197951893538],[0.008501647496038,-0.019813946395933],[0.008541662521647,-0.019843957663343],[0.008525406417493,-0.01991023254552],[0.008505398904689,-0.019962752263453],[0.00850915031334,-0.020021524328739],[0.008530408295694,-0.020049034657163],[0.008606686938262,-0.020060288882426],[0.008687967459031,-0.020047784187689],[0.00872923295419,-0.020014021511895],[0.008761745162498,-0.019935241935014],[0.008791756431705,-0.019811445456982],[0.008808012535859,-0.019772680903236],[0.008870536013373,-0.019682647100952],[0.008949315595041,-0.019587611420711],[0.008946814655941,-0.019498828087805],[0.008938061369088,-0.019438805552857],[0.008955567942793,-0.019372530670493],[0.008969323107846,-0.019293751093309],[0.008940562308189,-0.019204967760249],[0.008884291178426,-0.019142444286236],[0.008846777091917,-0.019104930201817],[0.008762995632048,-0.019107431140778],[0.008725481545539,-0.019054911422579],[0.008735485301942,-0.018939868230276],[0.008734234832391,-0.018883597103578],[0.008714227319587,-0.018798565178756],[0.00864295055522,-0.018747295929946],[0.008585428955907,-0.018658512596606],[0.008535410173896,-0.018609744286724],[0.008486641861434,-0.018573480671675],[0.008427869792571,-0.018529714239709],[0.008410363218867,-0.018518460014344],[0.008374099601908,-0.018518460014344],[0.008345338802252,-0.018487198277217],[0.008326581758997,-0.018485947807732],[0.008291568611589,-0.018493450624643],[0.008261557342382,-0.018503454380524],[0.00825030311643,-0.018488448746702],[0.008199033864868,-0.01847344311288],[0.008145263674206,-0.018485947807732],[0.008109000057247,-0.018503454380524]]]}}
]
}
