{
"type": "FeatureCollection",
"name": "build",
"crs": { "type": "name", "properties": { "name": "urn:ogc:def:crs:OGC:1.3:CRS84" } },
"features": [
{"type":"Feature","properties":{"fid":3,"name_id":"build_patryci","build_type":"patriciy","is_landmark":true},"geometry":{"type":"Polygon","coordinates":[[[0.016076917283584,-0.011096005157763],[0.016311538465722,-0.011346936898553],[0.016583799409701,-0.011691968041782],[0.016739377091974,-0.011586576710804],[0.016682917449213,-0.011467384134055],[0.016815911274383,-0.011373284731323],[0.016761960949078,-0.011299259867819],[0.016884917504423,-0.011201396488921],[0.016631476441365,-0.010878949201809],[0.016522321132028,-0.010963011335058],[0.016437004338523,-0.010906551693326],[0.01629397324353,-0.011026998929009],[0.016201128497657,-0.010968029969879],[0.016076917283584,-0.011096005157763]],[[0.016342103808783,-0.011157874406279],[0.016391359832725,-0.011116261559253],[0.016595177862826,-0.011357446223568],[0.016543374113509,-0.011404154521211],[0.016342103808783,-0.011157874406279]],[[0.016591780895658,-0.011074648712221],[0.016643584644975,-0.011026241930972],[0.016734453516729,-0.011130698669446],[0.016677554316659,-0.011181653176006],[0.016591780895658,-0.011074648712221]]]}},
{"type":"Feature","properties":{"fid":4,"name_id":"build_assassins","build_type":"guild","is_landmark":true},"geometry":{"type":"Polygon","coordinates":[[[0.016376780719579,-0.012178775617686],[0.016582544750973,-0.012520042783778],[0.016953923734464,-0.012361955787775],[0.016793327417278,-0.012003123399676],[0.016376780719579,-0.012178775617686]]]}},
{"type":"Feature","properties":{"fid":5,"name_id":"build_post","build_type":"house","is_landmark":true},"geometry":{"type":"Polygon","coordinates":[[[0.017247513876818,-0.011829980498955],[0.017465824495492,-0.012299222852827],[0.017716756241094,-0.012244017870061],[0.017603836955573,-0.011952937051652],[0.017475861765316,-0.011712042581011],[0.017247513876818,-0.011829980498955]]]}},
{"type":"Feature","properties":{"fid":11,"name_id":"build_opera","build_type":"house","is_landmark":true},"geometry":{"type":"Polygon","coordinates":[[[0.012481081168456,-0.014347022272142],[0.012739261190178,-0.014824732596253],[0.013002079176361,-0.014690231631315],[0.012960337496202,-0.01462066216666],[0.012992803247437,-0.014602110309415],[0.012804192692646,-0.014260446938215],[0.012771726941412,-0.01427436083117],[0.012734623225715,-0.014201699390174],[0.012481081168456,-0.014347022272142]]]}},
{"type":"Feature","properties":{"fid":12,"name_id":"house_citywatch","build_type":"citywatch","is_landmark":true},"geometry":{"type":"Polygon","coordinates":[[[0.013104259614548,-0.014316459509239],[0.013133575906549,-0.014365319994377],[0.013186345232151,-0.014646756388565],[0.013444328601759,-0.014795292263134],[0.013403285792957,-0.014441542351171],[0.013510778863627,-0.014420043737719],[0.013477553732693,-0.014263690185279],[0.013436510923892,-0.014167923634357],[0.013379832759357,-0.014099518955103],[0.013104259614548,-0.014316459509239]]]}},
{"type":"Feature","properties":{"fid":14,"name_id":"build_fools","build_type":"guild","is_landmark":true},"geometry":{"type":"Polygon","coordinates":[[[0.016793327417278,-0.012003123399676],[0.017163426776957,-0.011841686537373],[0.017337415189112,-0.012208346673031],[0.017311937935349,-0.012221616075731],[0.017445905828051,-0.012476919383547],[0.017187736323256,-0.012602607165766],[0.017048460669353,-0.012315563446827],[0.016953923734464,-0.012361955787775],[0.016793327417278,-0.012003123399676]]]}},
{"type":"Feature","properties":{"fid":15,"name_id":"bulid_musicans","build_type":"guild","is_landmark":true},"geometry":{"type":"Polygon","coordinates":[[[0.017503654269913,-0.01237755809621],[0.017630191296934,-0.012622139726511],[0.018253534772328,-0.012568637494902],[0.018205977231971,-0.01216609689483],[0.018127846987098,-0.012215352917657],[0.018025937972048,-0.012266307424019],[0.017883265350977,-0.012307071029102],[0.017918933506245,-0.012451442130388],[0.018024239488464,-0.01243615577849],[0.01804292280789,-0.012526175406316],[0.017873074449472,-0.012553351143012],[0.01780343662252,-0.012320658897462],[0.017503654269913,-0.01237755809621]]]}},
{"type":"Feature","properties":{"fid":16,"name_id":"build_blind","build_type":"temple","is_landmark":true},"geometry":{"type":"Polygon","coordinates":[[[0.018287504444011,-0.011717697238348],[0.018302790796269,-0.012133825707457],[0.018350348336626,-0.012541461758208],[0.018802144970017,-0.01247352241646],[0.018761381363997,-0.011743174491577],[0.018287504444011,-0.011717697238348]]]}},
{"type":"Feature","properties":{"fid":17,"name_id":"build_small_gods","build_type":"temple","is_landmark":true},"geometry":{"type":"Polygon","coordinates":[[[0.018968596361267,-0.011877354691876],[0.01900256603295,-0.012425964877225],[0.01986030024296,-0.012354628568358],[0.019782169998088,-0.011746571458674],[0.018968596361267,-0.011877354691876]]]}},
{"type":"Feature","properties":{"fid":18,"name_id":"build_seven_handed","build_type":"temple","is_landmark":true},"geometry":{"type":"Polygon","coordinates":[[[0.018876878247721,-0.01131515663703],[0.018963500910514,-0.011795827481575],[0.019563065615729,-0.011699013919312],[0.019481538403688,-0.011383095979065],[0.019420392994658,-0.011197961271984],[0.018876878247721,-0.01131515663703]]]}},
{"type":"Feature","properties":{"fid":19,"name_id":"build_offlers_croc","build_type":"temple","is_landmark":true},"geometry":{"type":"Polygon","coordinates":[[[0.01881148662973,-0.011086710599324],[0.018876878247721,-0.01131515663703],[0.019420392994658,-0.011197961271984],[0.019326127155736,-0.010955927365762],[0.01881148662973,-0.011086710599324]]]}},
{"type":"Feature","properties":{"fid":20,"name_id":"build_om","build_type":"temple","is_landmark":true},"geometry":{"type":"Polygon","coordinates":[[[0.019912103992277,-0.010768244933083],[0.020005520589407,-0.010965269025304],[0.019465402809639,-0.01112492647925],[0.019429734654371,-0.011011128081233],[0.019292157484052,-0.010703702558017],[0.019259886295953,-0.010651049567822],[0.019776225305543,-0.010493090597182],[0.01987643583701,-0.010702004074462],[0.019638648135225,-0.01078353128507],[0.019613170881462,-0.010703702558017],[0.019538437603758,-0.010724084360671],[0.01960807543071,-0.010927902387134],[0.019682808708413,-0.0109109175516],[0.019662426905403,-0.01085316911078],[0.019912103992277,-0.010768244933083]]]}},
{"type":"Feature","properties":{"fid":21,"name_id":"build_teachers","build_type":"guild","is_landmark":true},"geometry":{"type":"Polygon","coordinates":[[[0.016588171618041,-0.012619592001197],[0.016625538256893,-0.012726596464382],[0.016625538256893,-0.012882856950224],[0.016785195713806,-0.012821711542732],[0.017123193947057,-0.012636576836626],[0.017038269767848,-0.012476919383547],[0.016989013743907,-0.012422567910137],[0.016588171618041,-0.012619592001197]]]}},
{"type":"Feature","properties":{"fid":22,"name_id":"build_baker","build_type":"guild","is_landmark":true},"geometry":{"type":"Polygon","coordinates":[[[0.017220007511355,-0.012706214661874],[0.017350790747337,-0.013122343129426],[0.017668407177578,-0.012983067479138],[0.017542719392349,-0.012646767737883],[0.017496860335576,-0.012560145077186],[0.017220007511355,-0.012706214661874]]]}},
{"type":"Feature","properties":{"fid":23,"name_id":"build_merchants","build_type":"guild","is_landmark":true},"geometry":{"type":"Polygon","coordinates":[[[0.016863325958678,-0.012894746335013],[0.017011094030501,-0.013397497462694],[0.017304931690564,-0.013288794516255],[0.017135083332146,-0.012750375233973],[0.016863325958678,-0.012894746335013]]]}},
{"type":"Feature","properties":{"fid":24,"name_id":"build_thieves","build_type":"guild","is_landmark":true},"geometry":{"type":"Polygon","coordinates":[[[0.015708357121437,-0.011899434977995],[0.015496046673415,-0.012138921158095],[0.015180128726757,-0.011885847109615],[0.015395836141948,-0.011490100442736],[0.015603051139218,-0.011576723103774],[0.015584367819792,-0.011598803389917],[0.015591884775325,-0.01161702943241],[0.015637164015349,-0.011611029053144],[0.015681970333703,-0.011618527059206],[0.015722626624182,-0.011638797537474],[0.015757212677913,-0.011672196900635],[0.015784218764149,-0.011730111638258],[0.015784799278674,-0.011796632012668],[0.015757212677913,-0.011857165282013],[0.015708357121437,-0.011899434977995]]]}},
{"type":"Feature","properties":{"fid":25,"name_id":"build_plumbers","build_type":"guild","is_landmark":false},"geometry":{"type":"Polygon","coordinates":[[[0.014853807568147,-0.011323264242106],[0.014784169741196,-0.01171561394212],[0.015108580105774,-0.011829412339858],[0.015310699652291,-0.011459142926155],[0.015079705884843,-0.011382711166385],[0.014853807568147,-0.011323264242106]]]}},
{"type":"Feature","properties":{"fid":26,"name_id":"build_alchemists","build_type":"guild","is_landmark":false},"geometry":{"type":"Polygon","coordinates":[[[0.014249147412179,-0.011285897603981],[0.01426952921519,-0.011712216975023],[0.014471648761707,-0.011707121524377],[0.014687356176897,-0.011729201810509],[0.014760390971017,-0.011306279406595],[0.014500522982638,-0.011277405186225],[0.014249147412179,-0.011285897603981]]]}},
{"type":"Feature","properties":{"fid":27,"name_id":"build_lawyers","build_type":"guild","is_landmark":false},"geometry":{"type":"Polygon","coordinates":[[[0.013255534515435,-0.011498208047807],[0.013381222300664,-0.011956798605927],[0.013980787005879,-0.011705423040828],[0.013911149178928,-0.011290993054635],[0.013255534515435,-0.011498208047807]]]}},
{"type":"Feature","properties":{"fid":28,"name_id":"build_haberdashers","build_type":"guild","is_landmark":false},"geometry":{"type":"Polygon","coordinates":[[[0.013168911852642,-0.011051506873818],[0.013279313285613,-0.011382711166385],[0.013788858360867,-0.011216259778372],[0.013817095650454,-0.011188022489325],[0.013817944892246,-0.011159148268943],[0.013743636235438,-0.01079163889016],[0.013718158981676,-0.010760429254853],[0.013670813751767,-0.010762976980184],[0.013508183948582,-0.010812657624141],[0.013257657619915,-0.010833888668564],[0.013230481882568,-0.010945139341318],[0.013193964485508,-0.011018174134097],[0.013168911852642,-0.011051506873818]]]}},
{"type":"Feature","properties":{"fid":29,"name_id":"build_gamblers","build_type":"guild","is_landmark":false},"geometry":{"type":"Polygon","coordinates":[[[0.014314114409274,-0.010703105434892],[0.014322606827195,-0.011168489928479],[0.014512836988623,-0.011166791444927],[0.014776101944171,-0.011188871731101],[0.014811770099439,-0.010774441744175],[0.014619841454426,-0.010771044777066],[0.014492455185613,-0.010723487237546],[0.014314114409274,-0.010703105434892]]]}},
{"type":"Feature","properties":{"fid":30,"name_id":"build_embalmers","build_type":"guild","is_landmark":false},"geometry":{"type":"Polygon","coordinates":[[[0.014886503377142,-0.01081010989881],[0.014859327639796,-0.011200761115963],[0.015185436487958,-0.011299273161947],[0.015246581896988,-0.010937496165329],[0.014886503377142,-0.01081010989881]]]}},
{"type":"Feature","properties":{"fid":31,"name_id":"build_butchers","build_type":"guild","is_landmark":false},"geometry":{"type":"Polygon","coordinates":[[[0.015299234888098,-0.010956179484414],[0.01524318492982,-0.011321353448111],[0.015587977097408,-0.011465724549912],[0.015710267915469,-0.011134520257439],[0.015708569431885,-0.011103947553499],[0.015299234888098,-0.010956179484414]]]}},
{"type":"Feature","properties":{"fid":32,"name_id":"build_fate","build_type":"temple","is_landmark":false},"geometry":{"type":"Polygon","coordinates":[[[0.017796854998632,-0.010212243687242],[0.017904708706228,-0.010368504174466],[0.017965854115258,-0.010484001056278],[0.018338671261985,-0.010329439052668],[0.018277525852955,-0.010198655818784],[0.018196847882706,-0.01004918926571],[0.018115320670666,-0.009928596933066],[0.017796854998632,-0.010212243687242]]]}},
{"type":"Feature","properties":{"fid":33,"name_id":"build_royal_bank","build_type":"bank","is_landmark":false},"geometry":{"type":"Polygon","coordinates":[[[0.017426585577281,-0.009813100051056],[0.017538685493837,-0.009901421196126],[0.017621911189462,-0.009984646890498],[0.017674564180571,-0.010055983199942],[0.018002371512318,-0.009760447060714],[0.017908954915188,-0.009646648662207],[0.017800251965801,-0.009536247230782],[0.017715327786592,-0.009463212437666],[0.017426585577281,-0.009813100051056]]]}},
{"type":"Feature","properties":{"fid":34,"name_id":"build_mint","build_type":"admin","is_landmark":true},"geometry":{"type":"Polygon","coordinates":[[[0.017457659283977,-0.009775446030551],[0.017255038735279,-0.009621171408804],[0.01745461055642,-0.009288268630838],[0.017665222520858,-0.009421599590419],[0.017715327786592,-0.009463212437666],[0.017457659283977,-0.009775446030551]]]}},
{"type":"Feature","properties":{"fid":35,"name_id":"build_troll_emb","build_type":"admin","is_landmark":true},"geometry":{"type":"Polygon","coordinates":[[[0.015593072548161,-0.009323087543854],[0.015690735354251,-0.009517563911614],[0.015742539103568,-0.009479348031495],[0.015813875414104,-0.009369795841798],[0.01574338834536,-0.009236464882197],[0.015593072548161,-0.009323087543854]]]}},
{"type":"Feature","properties":{"fid":36,"name_id":"build_low_king","build_type":"admin","is_landmark":true},"geometry":{"type":"Polygon","coordinates":[[[0.015895402626144,-0.009162580847238],[0.015996462399403,-0.009351112522621],[0.016135738053306,-0.009334976928786],[0.016222360716099,-0.009284871663714],[0.01602788434571,-0.009049631690317],[0.015975231354601,-0.009105681647891],[0.015895402626144,-0.009162580847238]]]}},
{"type":"Feature","properties":{"fid":37,"name_id":"build_measures","build_type":"admin","is_landmark":false},"geometry":{"type":"Polygon","coordinates":[[[0.016190089527999,-0.008765984935187],[0.016151024405563,-0.008884029542887],[0.016131491844345,-0.008917999214161],[0.016417686328279,-0.009064068800602],[0.016437218889497,-0.00899697869986],[0.016448259032795,-0.00888997423536],[0.016444012823834,-0.008849210629829],[0.016190089527999,-0.008765984935187]]]}},
{"type":"Feature","properties":{"fid":38,"name_id":"build_cattle_mar","build_type":"market","is_landmark":false},"geometry":{"type":"Polygon","coordinates":[[[0.015104758517709,-0.024961025154957],[0.015142125156561,-0.025003487240526],[0.015164205443156,-0.025064632643719],[0.015170999377492,-0.025129175013727],[0.015079281263947,-0.025567383735559],[0.015159109992403,-0.02560305188727],[0.015522585479417,-0.025830648664624],[0.015721308058766,-0.025810266863684],[0.01606440174277,-0.025745724494017],[0.01632426973115,-0.025662498806768],[0.016511102925409,-0.025575876152634],[0.01653997714634,-0.025149556814775],[0.016565454400103,-0.024390334723601],[0.016490721122399,-0.024337681737252],[0.01644656054921,-0.024271440883429],[0.016288601575882,-0.02435296808813],[0.016263124322119,-0.02435296808813],[0.015498806709239,-0.024741920793209],[0.01514552212373,-0.024882894917476],[0.015104758517709,-0.024961025154957]]]}},
{"type":"Feature","properties":{"fid":39,"name_id":"build_custom","build_type":"admin","is_landmark":false},"geometry":{"type":"Polygon","coordinates":[[[0.012585058120581,-0.021385717503268],[0.01262157551764,-0.021476586368665],[0.012673379266958,-0.021558962816688],[0.01273537391778,-0.02162095746311],[0.012835584449247,-0.021690595285087],[0.012839830658207,-0.021629449880426],[0.012862760186594,-0.021574249167863],[0.012889086682149,-0.021539430256852],[0.012741318610325,-0.021353446317413],[0.012585058120581,-0.021385717503268]]]}},
{"type":"Feature","properties":{"fid":40,"name_id":"build_racecourse","build_type":"fun","is_landmark":true},"geometry":{"type":"Polygon","coordinates":[[[0.005108333383027,-0.01242366927056],[0.005013218302313,-0.012396493533851],[0.004938485024609,-0.012630884262877],[0.004975851663461,-0.012654663032477],[0.004928294123104,-0.012793938682945],[0.004952072893282,-0.012858481057526],[0.004924897155936,-0.012956993102909],[0.004975851663461,-0.012953596135827],[0.004959992263349,-0.013032596892446],[0.004955169628916,-0.013102949775596],[0.004958876273583,-0.013173370275113],[0.004973481192283,-0.013252612539437],[0.00502001223665,-0.013374820053584],[0.00506336311563,-0.013418746246361],[0.005113659892054,-0.013454509963123],[0.005175193260475,-0.013483143238051],[0.005241047869219,-0.013499556354754],[0.005308821764046,-0.013503150667887],[0.005382041270537,-0.013492310545258],[0.005484108915172,-0.013453668330191],[0.005543670472687,-0.013416662088207],[0.005595692034765,-0.013362493165045],[0.005633963632922,-0.01329215101563],[0.005648451162796,-0.013238941370515],[0.005686840287605,-0.012945629596095],[0.005740169276341,-0.012654663032477],[0.005729582553912,-0.012553480802289],[0.005691671147002,-0.012459073982121],[0.005629338118737,-0.012378671767122],[0.005547356616061,-0.012318430950865],[0.005458221001368,-0.012284393619895],[0.005355710391108,-0.01228502357374],[0.005249462293488,-0.012312708485152],[0.005147913129661,-0.012370961121476],[0.005125318218869,-0.012389699599673],[0.005108333383027,-0.01242366927056]]]}},
{"type":"Feature","properties":{"fid":41,"name_id":"build_disk","build_type":"admin","is_landmark":true},"geometry":{"type":"Polygon","coordinates":[[[0.013935171515096,-0.012878858563537],[0.013999567323292,-0.012904224746329],[0.014022824474588,-0.012879712101793],[0.014053397179103,-0.012902641629599],[0.014029891512562,-0.012929222078279],[0.014061040800944,-0.012973707871258],[0.014076918668249,-0.01302564203377],[0.014110296379173,-0.01302663092807],[0.014110296379173,-0.013068243774803],[0.014077657038476,-0.013067943234647],[0.014063601319719,-0.013120399889814],[0.014031976860131,-0.013168179235082],[0.014051698695519,-0.013188836106114],[0.014021975232796,-0.013218559568048],[0.01400209355299,-0.013193701989853],[0.013964397164708,-0.013212909258527],[0.013926183854582,-0.013222083462358],[0.013928558635666,-0.013255076964133],[0.013883548820685,-0.013253378480595],[0.013883876208948,-0.013222083462358],[0.013840006611751,-0.013210738013406],[0.013803003511118,-0.013190226860338],[0.013788433739971,-0.0132143133592],[0.013758710277248,-0.013192233073192],[0.013778083203399,-0.013168179235082],[0.013746458743811,-0.013120399889814],[0.013732403025054,-0.013067943234647],[0.013700961835386,-0.013070791500113],[0.013700961835386,-0.01302832941161],[0.013732745970471,-0.013028645583323],[0.013749019262585,-0.012973707871258],[0.013781003522581,-0.012928372405015],[0.013762956486208,-0.012906887838452],[0.013791830707139,-0.012880561343564],[0.013813047766911,-0.012902597014862],[0.013886886202238,-0.0128771724033],[0.013883548820685,-0.012844043947424],[0.013929407877458,-0.012846591672736],[0.013935171515096,-0.012878858563537]],[[0.013903489218386,-0.012990361846659],[0.013880201710217,-0.012995099743622],[0.013861345775637,-0.013007818231761],[0.013848229219851,-0.013027635185351],[0.013843889390085,-0.013049961673421],[0.013848229219851,-0.013072288161489],[0.013861345775637,-0.013092105115074],[0.013881162729738,-0.013105221670517],[0.013903489218386,-0.013109561500169],[0.013926776726556,-0.013104823603208],[0.013945632661136,-0.013092105115074],[0.013958351149603,-0.013073249180986],[0.013963089046688,-0.013049961673421],[0.013958351149603,-0.013026674165854],[0.013945632661136,-0.013007818231761],[0.013926776726556,-0.012995099743622],[0.013903489218386,-0.012990361846659]]]}},
{"type":"Feature","properties":{"fid":42,"name_id":"build_tanty","build_type":"admin","is_landmark":false},"geometry":{"type":"Polygon","coordinates":[[[0.01187763970777,-0.01399688964854],[0.011908212412285,-0.014207501606599],[0.011899719994365,-0.014312807585557],[0.012205447039517,-0.01437225450914],[0.012331134824746,-0.014382445410325],[0.012351516627756,-0.014238074310172],[0.012404169618866,-0.014204104639535],[0.012118824376724,-0.013808357976247],[0.01187763970777,-0.01399688964854]]]}},
{"type":"Feature","properties":{"fid":43,"name_id":"build_university","build_type":"university","is_landmark":true},"geometry":{"type":"Polygon","coordinates":[[[0.01332050151253,-0.00955875213796],[0.013323898479698,-0.009616500579013],[0.013274642455757,-0.009645374799536],[0.013305215160272,-0.009726902010412],[0.013383345405144,-0.009711615658374],[0.013410521142491,-0.009621596029694],[0.013500540772453,-0.00959611877629],[0.01354809831281,-0.009157910017441],[0.013463174133601,-0.009005046496785],[0.013400575962752,-0.009042079774654],[0.013332751314716,-0.009055449686592],[0.013264262188849,-0.009046059422124],[0.01319399643757,-0.009012560156786],[0.01315862197166,-0.008980428866657],[0.01313410944766,-0.008943146059791],[0.01311929251781,-0.008901058887142],[0.013115153890272,-0.008853449598375],[0.013123416113407,-0.008806380412218],[0.013145357721538,-0.008754947838382],[0.013196798038447,-0.008690142606851],[0.01323454279851,-0.008665550834472],[0.013273479142595,-0.008650912926653],[0.013318076431677,-0.008644548651328],[0.013362963602134,-0.008648364948341],[0.013364662085719,-0.008561742286525],[0.013252562169163,-0.008520978680958],[0.01324746671841,-0.008577028638612],[0.013169336473538,-0.008582124089307],[0.013162542539201,-0.008492104460345],[0.013116683482428,-0.008475119624689],[0.013101397130171,-0.008575330155046],[0.012875498813475,-0.008495501427476],[0.01288568971498,-0.008412275732757],[0.012549389965313,-0.008271301596764],[0.012534103613055,-0.008288286432429],[0.012505229392124,-0.008271301596764],[0.012525611195134,-0.008206759221233],[0.01297910631211,-0.008317160653057],[0.013427505978333,-0.008470024173992],[0.013429204461917,-0.00830187430096],[0.013306913643856,-0.008257713728232],[0.013306913643856,-0.00812523201002],[0.013398631757402,-0.00813712139499],[0.01341391810966,-0.007994448775333],[0.013264451554252,-0.007950288202571],[0.013138763769023,-0.007946891235436],[0.013109889548092,-0.008055594183763],[0.013233878849737,-0.008092960822244],[0.013189718276548,-0.008232236474733],[0.01291796090308,-0.008162598648495],[0.013004583565873,-0.007863665540603],[0.012877197297059,-0.007670038413786],[0.012936644222506,-0.007630973291698],[0.01297910631211,-0.007698912634457],[0.013033457786804,-0.007681927798769],[0.01307252290924,-0.007763455010069],[0.013509033190374,-0.007853474639194],[0.013624530074098,-0.007807615582849],[0.013677086498925,-0.00799399888476],[0.013548947554602,-0.008038184727197],[0.013497993047076,-0.008802502331818],[0.01359310812779,-0.008921396181288],[0.013695017142841,-0.008870441674377],[0.013783338289218,-0.009006320359458],[0.014078874432866,-0.009019908227963],[0.014211356152431,-0.008901014378525],[0.014394792379523,-0.009074259701979],[0.014254667483828,-0.009178291820191],[0.014220697812144,-0.009630088447495],[0.014302225024185,-0.009699726273456],[0.014227491746481,-0.009844097376011],[0.014132376665767,-0.009799936803471],[0.014045754002974,-0.009808429221268],[0.013678881548792,-0.009769364099402],[0.01358886191883,-0.009855986760925],[0.013449586264927,-0.009726902010412],[0.012925024217764,-0.009936726826188],[0.012913022657031,-0.009965646310309],[0.012887790193674,-0.009984317350738],[0.012851543460154,-0.009986216961519],[0.012821102673527,-0.009966448483841],[0.012810015833536,-0.009944689335529],[0.01280890691813,-0.009919290997456],[0.012818055134587,-0.009896648367511],[0.012835622033609,-0.00987968421057],[0.012879954761804,-0.009872265456276],[0.012901263627025,-0.009881976465488],[0.012916889586405,-0.009898924039014],[0.013060633524151,-0.009818620122623],[0.013047548166176,-0.009751739405061],[0.013017654496432,-0.009768335677401],[0.012982276366344,-0.009771119996583],[0.012949036187404,-0.009758692003114],[0.012924162651462,-0.009733380509416],[0.012913211810981,-0.009705580181674],[0.012912951067248,-0.00967570190965],[0.012922688868162,-0.009648947521904],[0.012942093992781,-0.009626227040485],[0.012979450092612,-0.009609202885227],[0.01301901908063,-0.009611969818373],[0.013052657426907,-0.009632989389713],[0.013072522343786,-0.009667456605474],[0.01332050151253,-0.00955875213796]],[[0.013692469417465,-0.009260243652066],[0.013668690647286,-0.009482744998617],[0.013757011793664,-0.009592297188279],[0.013988854802904,-0.009600789606081],[0.014072929740321,-0.009518413153395],[0.014088216092579,-0.009290816356181],[0.013993950253657,-0.009190605826018],[0.013789282981763,-0.00917107326505],[0.013692469417465,-0.009260243652066]]]}},
{"type":"Feature","properties":{"fid":44,"name_id":"build_university","build_type":"university","is_landmark":true},"geometry":{"type":"Polygon","coordinates":[[[0.012549389965313,-0.008731590643009],[0.012552786932481,-0.009050056311207],[0.012714142872978,-0.009036468442703],[0.012692062586384,-0.008729892159444],[0.012549389965313,-0.008731590643009]]]}},
{"type":"Feature","properties":{"fid":45,"name_id":"build_university","build_type":"university","is_landmark":true},"geometry":{"type":"Polygon","coordinates":[[[0.012961761409594,-0.00922321393373],[0.013013651654645,-0.009233771123266],[0.013055667273441,-0.009262111015615],[0.01308400716616,-0.00930412663386],[0.013094564355833,-0.009356016878223],[0.01308400716616,-0.009407907122577],[0.013055667273441,-0.009449922740805],[0.013013651654645,-0.009478262633137],[0.012961761409594,-0.009488819822665],[0.012912012550308,-0.009479149624151],[0.012867855545747,-0.009449922740805],[0.012838628662003,-0.009405765736842],[0.012828958463356,-0.009356016878223],[0.012839515653029,-0.00930412663386],[0.012867855545747,-0.009262111015615],[0.012909871164544,-0.009233771123266],[0.012961761409594,-0.00922321393373]]]}},
{"type":"Feature","properties":{"fid":46,"name_id":"build_conjurers","build_type":"guild","is_landmark":false},"geometry":{"type":"Polygon","coordinates":[[[0.013174431924291,-0.009874245459184],[0.013230481882568,-0.009965114329576],[0.013533661202344,-0.009849617447578],[0.013443641572383,-0.009755351610036],[0.013174431924291,-0.009874245459184]]]}},
{"type":"Feature","properties":{"fid":47,"name_id":"build_beggars","build_type":"guild","is_landmark":false},"geometry":{"type":"Polygon","coordinates":[[[0.013137065285439,-0.017161589069369],[0.013172733440706,-0.017504682737672],[0.013639816426355,-0.017603194780931],[0.013524319542631,-0.017163287552877],[0.013137065285439,-0.017161589069369]]]}},
{"type":"Feature","properties":{"fid":48,"name_id":"build_seamstresses","build_type":"guild","is_landmark":false},"geometry":{"type":"Polygon","coordinates":[[[0.012776986765593,-0.018012529304947],[0.012712444389394,-0.018274095763796],[0.013018171434546,-0.018357321455168],[0.013386742372313,-0.018511883453328],[0.013238974300489,-0.018080468644944],[0.013075919876408,-0.018073674710945],[0.012878895780643,-0.018027815656448],[0.012776986765593,-0.018012529304947]]]}},
{"type":"Feature","properties":{"fid":49,"name_id":"build_old_citywatch","build_type":"citywatch","is_landmark":false},"geometry":{"type":"Polygon","coordinates":[[[0.015341696977702,-0.018970473996522],[0.015373968165802,-0.019301678276964],[0.015565896810814,-0.019289788892549],[0.015683092178122,-0.019113146609714],[0.015888608691808,-0.018905931623849],[0.015341696977702,-0.018970473996522]]]}},
{"type":"Feature","properties":{"fid":50,"name_id":"build_ramkin","build_type":"house","is_landmark":false},"geometry":{"type":"Polygon","coordinates":[[[0.008685339811307,-0.012438106380686],[0.008586827763424,-0.013083530126663],[0.008556255058909,-0.013830862883083],[0.009171106116382,-0.013898802224461],[0.00919488488656,-0.012906887838452],[0.008918032062339,-0.012519633590793],[0.008850941960764,-0.012461885150303],[0.008759223847219,-0.012433010930053],[0.008685339811307,-0.012438106380686]]]}}
]
}
