{
"type": "FeatureCollection",
"name": "beers",
"crs": { "type": "name", "properties": { "name": "urn:ogc:def:crs:OGC:1.3:CRS84" } },
"features": [
{"type":"Feature","properties":{"fid":1,"name_id":null},"geometry":{"type":"Point","coordinates":[0.01780659285149,-0.013855216529032]}},
{"type":"Feature","properties":{"fid":2,"name_id":null},"geometry":{"type":"Point","coordinates":[0.018911817059923,-0.014074111502803]}},
{"type":"Feature","properties":{"fid":3,"name_id":null},"geometry":{"type":"Point","coordinates":[0.020857441639048,-0.013778016962341]}},
{"type":"Feature","properties":{"fid":4,"name_id":null},"geometry":{"type":"Point","coordinates":[0.02079099137718,-0.013527851277703]}},
{"type":"Feature","properties":{"fid":5,"name_id":null},"geometry":{"type":"Point","coordinates":[0.021670480137206,-0.013521988019466]}},
{"type":"Feature","properties":{"fid":6,"name_id":null},"geometry":{"type":"Point","coordinates":[0.021641163845205,-0.013039246424154]}},
{"type":"Feature","properties":{"fid":7,"name_id":null},"geometry":{"type":"Point","coordinates":[0.022301757624958,-0.013013838971743]}},
{"type":"Feature","properties":{"fid":8,"name_id":null},"geometry":{"type":"Point","coordinates":[0.021326502311062,-0.012538915053138]}},
{"type":"Feature","properties":{"fid":9,"name_id":null},"geometry":{"type":"Point","coordinates":[0.021760383432675,-0.012073763230788]}},
{"type":"Feature","properties":{"fid":10,"name_id":null},"geometry":{"type":"Point","coordinates":[0.020558415460639,-0.011911546418603]}},
{"type":"Feature","properties":{"fid":11,"name_id":null},"geometry":{"type":"Point","coordinates":[0.023030756086047,-0.013725247638259]}},
{"type":"Feature","properties":{"fid":12,"name_id":null},"geometry":{"type":"Point","coordinates":[0.024277675705818,-0.013441856823548]}},
{"type":"Feature","properties":{"fid":13,"name_id":null},"geometry":{"type":"Point","coordinates":[0.024269858027951,-0.013686159250043]}},
{"type":"Feature","properties":{"fid":14,"name_id":null},"geometry":{"type":"Point","coordinates":[0.020447013551036,-0.013121332039618]}},
{"type":"Feature","properties":{"fid":15,"name_id":null},"geometry":{"type":"Point","coordinates":[0.02345291069086,-0.015124611932051]}},
{"type":"Feature","properties":{"fid":16,"name_id":null},"geometry":{"type":"Point","coordinates":[0.02192455466788,-0.015624943297517]}},
{"type":"Feature","properties":{"fid":17,"name_id":null},"geometry":{"type":"Point","coordinates":[0.015543816524219,-0.011392689757245]}}
]
}
