{
"type": "FeatureCollection",
"name": "parks",
"crs": { "type": "name", "properties": { "name": "urn:ogc:def:crs:OGC:1.3:CRS84" } },
"features": [
{"type":"Feature","properties":{"fid":1,"name_id":"park_smarsh"},"geometry":{"type":"Polygon","coordinates":[[[0.012816901129821,-0.004739729627685],[0.012766225190266,-0.004866150753445],[0.012728961421788,-0.004997153667275],[0.01270551334842,-0.00513131975731],[0.012696134886002,-0.005267196158098],[0.012703102729681,-0.005425916992989],[0.01270130600087,-0.005543530610314],[0.012711445153307,-0.005660720152502],[0.01274333267328,-0.005814227189111],[0.012789262793054,-0.005945908688757],[0.012809924003779,-0.00597072521839],[0.012837981996092,-0.005990946595094],[0.012870304384405,-0.006003251806387],[0.012904706427387,-0.006006809115971],[0.012956176783724,-0.00599490899086],[0.013160800563712,-0.005984990899715],[0.013313605297772,-0.0059688016928],[0.013515764614703,-0.005935622325178],[0.013565932390444,-0.005925271164286],[0.013576474095837,-0.005918671511907],[0.013620860068838,-0.005884667073182],[0.013655509622608,-0.005849020272951],[0.01368495522054,-0.005808967274283],[0.013708642861632,-0.005765261649971],[0.013734966299055,-0.005682491476812],[0.013752875575109,-0.005537258183552],[0.013749686388882,-0.005399352404443],[0.013726463248015,-0.005277365215866],[0.013684532202944,-0.005160480760424],[0.013624915748369,-0.005051549282753],[0.01359310812779,-0.005006391549436],[0.013554772266089,-0.004985011211519],[0.013397958189972,-0.004906104313099],[0.013236139573474,-0.004838047803829],[0.013070066129734,-0.00478115699267],[0.012900507284703,-0.004735695457384],[0.012857664735841,-0.004726141759058],[0.012816901129821,-0.004739729627685]]]}},
{"type":"Feature","properties":{"fid":2,"name_id":"park_petricians"},"geometry":{"type":"Polygon","coordinates":[[[0.01583255873353,-0.011125178597902],[0.01595710557172,-0.010905467998718],[0.016096275690581,-0.010694716152892],[0.016249427401746,-0.010493894799273],[0.016415854550241,-0.010303929888997],[0.016594789770441,-0.010125697316094],[0.016791560252357,-0.009955399129407],[0.016843466050924,-0.009922412616509],[0.016892249744784,-0.009899673257138],[0.016943426072316,-0.009883002601521],[0.016996243288588,-0.009872645530086],[0.017057619142576,-0.009868730617885],[0.017118947303573,-0.009873332645583],[0.017179051568692,-0.009886363351634],[0.017243772271578,-0.009910780478299],[0.017312744471878,-0.009949422490156],[0.017378409277545,-0.009994445741514],[0.017439977731264,-0.010044926285847],[0.017507818247605,-0.010112181817028],[0.017595752668952,-0.010225219869358],[0.017688115504999,-0.010366865218936],[0.017748223982282,-0.010472260964743],[0.017788583021847,-0.010553828358616],[0.017835903607471,-0.010665551473463],[0.017875611292667,-0.010780201340096],[0.017890196756515,-0.010843497096848],[0.017894751163293,-0.010912777672131],[0.017888361830803,-0.010990608054171],[0.017869940041908,-0.011066496324939],[0.017839934536194,-0.011138593908749],[0.017804123203913,-0.011198075748427],[0.017760422697446,-0.011252027639296],[0.017608715897468,-0.011387129124006],[0.017425121476469,-0.01151996389011],[0.017228666755608,-0.01163291312359],[0.017021497242455,-0.011724743291194],[0.016913632736328,-0.011780694906281],[0.016802989717796,-0.011830928932473],[0.016689871003562,-0.011875307885255],[0.01653573093738,-0.011925164349859],[0.01583255873353,-0.011125178597902]]]}},
{"type":"Feature","properties":{"fid":3,"name_id":"park_cockled"},"geometry":{"type":"Polygon","coordinates":[[[0.0224379613924,-0.016322538214612],[0.022205269141368,-0.017193860256018],[0.022325861475844,-0.017234623860198],[0.022495709834262,-0.01734162832113],[0.022646874873254,-0.017491094869633],[0.022718211183789,-0.017598099330419],[0.022959395852743,-0.017812108251808],[0.023188691136607,-0.017893635459891],[0.023282107733737,-0.017914017261906],[0.023419684904055,-0.017883444558882],[0.023509704534017,-0.017847776405349],[0.023672758958098,-0.017720390142671],[0.023789954325406,-0.017572622077856],[0.023924134528556,-0.017093649729037],[0.023956405716656,-0.01676414392809],[0.023900355758378,-0.016458416895787],[0.023796748259743,-0.016322538214612],[0.023555563590789,-0.016217232236639],[0.023266821381479,-0.01619854891796],[0.023132641178329,-0.016247804939927],[0.023008651876684,-0.016281774610242],[0.022809929297335,-0.016315744280551],[0.02259252339856,-0.016327633665158],[0.0224379613924,-0.016322538214612]]]}},
{"type":"Feature","properties":{"fid":4,"name_id":"park_hipo"},"geometry":{"type":"Polygon","coordinates":[[[0.019479202988761,-0.019568340184339],[0.019443832558488,-0.019550591188754],[0.019406069954025,-0.019547682104555],[0.019354143634422,-0.019566140331243],[0.019321481159626,-0.01958709200183],[0.01929452715903,-0.019618268572907],[0.01927784986046,-0.019655956294935],[0.019272902510765,-0.019696871089077],[0.019280116218155,-0.019737447671939],[0.019293485032944,-0.019766040297714],[0.019546293090336,-0.020166206370025],[0.019614636534484,-0.020162273551626],[0.019675123433928,-0.020147565682155],[0.019721133375449,-0.020128453110072],[0.019764078229798,-0.02010319554523],[0.019803142151981,-0.020072272818286],[0.019837583025023,-0.020036272383832],[0.019645093025313,-0.019775224847428],[0.019479202988761,-0.019568340184339]]]}},
{"type":"Feature","properties":{"fid":5,"name_id":"park_hipo"},"geometry":{"type":"Polygon","coordinates":[[[0.019598096839654,-0.02026896462047],[0.019681753244069,-0.020261233289138],[0.019761690219504,-0.020235382808173],[0.019843725714039,-0.020190314732889],[0.019878491417113,-0.020161421359191],[0.019908919335558,-0.020127990491743],[0.020056768379446,-0.020351361420504],[0.020224007993884,-0.020590286241776],[0.020236748756787,-0.020630671731395],[0.020237943973183,-0.020673002408772],[0.020227502279132,-0.02071404246028],[0.020206221851699,-0.020750654729467],[0.020186119275854,-0.020771782464689],[0.020160066524684,-0.020790026093836],[0.020106351465164,-0.020818346621614],[0.020062571129115,-0.020830354054998],[0.020023667655964,-0.020831976867944],[0.0199884107775,-0.020826351227715],[0.019951944095977,-0.020812702240226],[0.01992165796244,-0.020793796014283],[0.019640558929258,-0.020358135003035],[0.019598096839654,-0.02026896462047]]]}},
{"type":"Feature","properties":{"fid":6,"name_id":"park_hide"},"geometry":{"type":"Polygon","coordinates":[[[0.008592772455969,-0.017304261683986],[0.007981318365665,-0.017596400846915],[0.00787771086703,-0.017608290231443],[0.007685782222018,-0.017748415120468],[0.007334196120093,-0.017953931624179],[0.006904479773296,-0.018222292017106],[0.006940147928563,-0.018276643489042],[0.006889193421038,-0.018415919135805],[0.006855223749354,-0.018405728234826],[0.006828048012008,-0.018410823685316],[0.006685375390937,-0.018578973551389],[0.006862017683691,-0.018925464184003],[0.007149061409417,-0.019399341077485],[0.007461582388906,-0.019876614936603],[0.007921871440218,-0.02050335534025],[0.008356683237768,-0.021046870051456],[0.008733746593456,-0.021464696984411],[0.009154970522332,-0.021586987793841],[0.009515049042178,-0.021671911966998],[0.00998722747858,-0.021736454338566],[0.010021197150263,-0.021294848637818],[0.010014403215926,-0.020914388340772],[0.009973639609906,-0.020601867381795],[0.0097596306783,-0.020031176933391],[0.009542224779525,-0.019416325912352],[0.009182146259679,-0.018482159992154],[0.009029282737103,-0.018115287556682],[0.008920579787715,-0.017772193889504],[0.008737143560624,-0.017476657759839],[0.008592772455969,-0.017304261683986]]]}},
{"type":"Feature","properties":{"fid":7,"name_id":"park_killing"},"geometry":{"type":"Polygon","coordinates":[[[0.009191487919392,-0.024038748653075],[0.009140533411867,-0.024084607705804],[0.009098071322262,-0.024164436427184],[0.009086181937173,-0.024218787897033],[0.009094674355094,-0.024239169698221],[0.009074292552084,-0.024373349889297],[0.009065800134163,-0.024521117947669],[0.009053910749073,-0.024595851218508],[0.009094674355094,-0.024607740602501],[0.009121850092441,-0.024604343635646],[0.009281507549353,-0.024643408754475],[0.009317175704621,-0.024634916337339],[0.009385115047988,-0.024660393588744],[0.009408893818167,-0.024633217853912],[0.009449657424187,-0.02447186192823],[0.009449657424187,-0.024327490836666],[0.009481928612286,-0.024268043916565],[0.009480230128702,-0.024193310645544],[0.00940209988383,-0.02412706979165],[0.009337557507631,-0.02408290922237],[0.009289999967274,-0.024060828937724],[0.009191487919392,-0.024038748653075]]]}},
{"type":"Feature","properties":{"fid":8,"name_id":"park_tump"},"geometry":{"type":"Polygon","coordinates":[[[0.00479666164533,-0.010345574646455],[0.005268840081732,-0.010303961799318],[0.005408964977426,-0.009554081308168],[0.005468411902873,-0.009525207087637],[0.005665435998637,-0.009506523768469],[0.005721485956915,-0.009562573725971],[0.005925303987017,-0.009569367660213],[0.005962670625869,-0.009397820820561],[0.006270096154605,-0.008718427395384],[0.006195362876901,-0.008427986705741],[0.006438246029439,-0.008312489823249],[0.006431452095102,-0.008236058062758],[0.006873057826988,-0.007916743152106],[0.007017428931643,-0.007660272133264],[0.007307869624538,-0.007425881400679],[0.007305037874779,-0.007334667513367],[0.007308346525726,-0.007261728366193],[0.007329745077333,-0.007117361429641],[0.007364357924179,-0.00699441666664],[0.0074532667185,-0.006769786685144],[0.007478232734939,-0.00667916573316],[0.007495561918256,-0.006586779812589],[0.007498099785966,-0.006568147197073],[0.007485751635694,-0.006486035799532],[0.007452240729193,-0.006357535233975],[0.007459248266519,-0.006319471915067],[0.00748325025747,-0.006232460353166],[0.007512122388502,-0.006160669001803],[0.007535466424818,-0.006114652082876],[0.00758689474224,-0.006045664059172],[0.007618793183872,-0.005982864002554],[0.007642505292681,-0.00590829829259],[0.007642894051913,-0.005875369459554],[0.007635153517925,-0.005830513373144],[0.007622532297072,-0.005792061904183],[0.007602184249046,-0.005751344078846],[0.007579009970155,-0.005718166322999],[0.00752018007256,-0.005662855451872],[0.007472354534898,-0.005643919358898],[0.007430006192154,-0.005614722175267],[0.007397655631844,-0.005579946773227],[0.007374935700628,-0.00554279193832],[0.007354780889184,-0.005478724681589],[0.007350237915082,-0.005346880800733],[0.007326352356206,-0.005249483618174],[0.007304710212133,-0.005199925143244],[0.007277296920023,-0.00515331037889],[0.007210518496991,-0.005084809940699],[0.00716080886408,-0.005003074879701],[0.007139840689694,-0.004947981690901],[0.007127922048109,-0.004897787643894],[0.007122191807113,-0.004846517177639],[0.007122734913863,-0.004794930343979],[0.007075130195681,-0.004716823688288],[0.007041207701822,-0.00463187592045],[0.007078436136887,-0.004586487336616],[0.007121858992868,-0.004553504977778],[0.007187730673006,-0.004526481403682],[0.007258613600597,-0.004519776004252],[0.007334292028811,-0.004477706035059],[0.007630234989956,-0.004297884850256],[0.007844590437138,-0.004151205067541],[0.007825907117712,-0.004091758142248],[0.007763063225098,-0.003988150643871],[0.007273899952854,-0.004261606500215],[0.006980708194948,-0.004197396538907],[0.006683814329786,-0.004153369741652],[0.00638460607743,-0.004129731895359],[0.006084481975688,-0.004126593486359],[0.005784844843162,-0.004143969183979],[0.00563564682799,-0.004160328180904],[0.005353542618988,-0.004200059671108],[0.005133594159834,-0.004245631188307],[0.005003772101272,-0.004281918359488],[0.004875976963209,-0.004324801087547],[0.004668396012894,-0.004410616219656],[0.004547625815193,-0.004470491799106],[0.004430077716576,-0.004536468841882],[0.004242156806669,-0.004659512815312],[0.004134681250671,-0.004740873312528],[0.0040315097767,-0.004827626828854],[0.003965253930875,-0.004888346940776],[0.003882060491627,-0.00497704117963],[0.003803522015129,-0.005069882571483],[0.003729844927982,-0.005166627096666],[0.003618372831008,-0.00533584660658],[0.003558569875838,-0.005441730613172],[0.003504272129962,-0.005550540406306],[0.003455622306855,-0.005661989995766],[0.00339976036079,-0.005814188598537],[0.003354425716278,-0.005969847654446],[0.003319830168887,-0.006128239951472],[0.003283722418523,-0.006427626076361],[0.003268232513867,-0.00662807792531],[0.003259630621175,-0.00682894327399],[0.003259662748701,-0.007130498940671],[0.003268307441299,-0.007331362451697],[0.003283840057597,-0.007531810995144],[0.003306242300213,-0.007731608443156],[0.003382273993997,-0.008180363383519],[0.0034794876258,-0.008625010799324],[0.003435327052611,-0.008735412231029],[0.003561864079632,-0.008782120529048],[0.003606024652821,-0.008948571918305],[0.003814196485786,-0.009135208473429],[0.003838665892079,-0.009167507615796],[0.003848942353816,-0.009196179846944],[0.003851480056076,-0.009226532154425],[0.003847273162352,-0.009252610763993],[0.003831744829311,-0.009294772865631],[0.003823093836721,-0.009345078743985],[0.00382066805954,-0.009403353888067],[0.003826240001487,-0.009461412739892],[0.003837597328891,-0.009511177508384],[0.003857765557191,-0.00956590519231],[0.003885233471803,-0.009617357991032],[0.003916126285031,-0.009659271252278],[0.003952785600162,-0.009697381085235],[0.00399374497656,-0.009730826477269],[0.004038414872776,-0.009759126038119],[0.004093182804106,-0.009784648481946],[0.004150926658729,-0.009802440859644],[0.004284327664004,-0.009831155090913],[0.004417050564266,-0.009847918964019],[0.004431680038998,-0.009859067371803],[0.004541423448616,-0.009956918601108],[0.004636786140543,-0.010068831227398],[0.004707021740837,-0.010176648988955],[0.00479666164533,-0.010345574646455]]]}},
{"type":"Feature","properties":{"fid":9,"name_id":"park_naphill"},"geometry":{"type":"Polygon","coordinates":[[[0.010191894750473,-0.005742684179933],[0.010497621795625,-0.006269214088134],[0.010570446565768,-0.006202206770074],[0.01064770321658,-0.006140361497548],[0.010792457372532,-0.006045418152015],[0.010947562185592,-0.005968538365798],[0.011110774369514,-0.005910834053897],[0.010565561138992,-0.004708307681484],[0.010509644410293,-0.004767734163238],[0.010452541494928,-0.004843884655706],[0.010404977157326,-0.00492633023913],[0.01036763713149,-0.005013882297358],[0.010344181337781,-0.005092036075259],[0.010327140088958,-0.005185680275586],[0.010321559286022,-0.005267086920829],[0.010324106528741,-0.005409059901055],[0.010309782409389,-0.005508662367503],[0.01028963769187,-0.005576206148209],[0.010261482847526,-0.005640822529248],[0.010225730067189,-0.00570156551782],[0.010191894750473,-0.005742684179933]]]}},
{"type":"Feature","properties":{"fid":10,"name_id":"park_small_gods"},"geometry":{"type":"Polygon","coordinates":[[[0.007817414699792,-0.011216896709704],[0.007827605601297,-0.011327298140539],[0.009437768039098,-0.011719647840548],[0.009563455824327,-0.011488654077838],[0.009284904516522,-0.011196514907084],[0.009145628862619,-0.01084323032811],[0.008197875022648,-0.011162545236047],[0.007817414699792,-0.011216896709704]]]}},
{"type":"Feature","properties":{"fid":11,"name_id":"park_apothecary"},"geometry":{"type":"Polygon","coordinates":[[[0.00985729348439,-0.0163548094014],[0.010319281019286,-0.016945881663733],[0.011134553139692,-0.017951383898927],[0.011131156172524,-0.017883444558882],[0.011042835026147,-0.017574320561361],[0.010981689617116,-0.017210845091094],[0.010988483551453,-0.016911911993532],[0.011029247157473,-0.016748857576486],[0.011073407730662,-0.016602787994433],[0.011165125844207,-0.01635141243437],[0.011297607563773,-0.016222327687187],[0.011239859121911,-0.015862249181456],[0.011236462154743,-0.015556522147796],[0.010937529043927,-0.015736561401006],[0.010845810930382,-0.015780721972524],[0.010346456756633,-0.016130609577297],[0.010186799299721,-0.016229121621252],[0.00985729348439,-0.0163548094014]]]}},
{"type":"Feature","properties":{"fid":12,"name_id":"park_wizards"},"geometry":{"type":"Polygon","coordinates":[[[0.011640701247777,-0.010648753961142],[0.01174286923232,-0.010660924343338],[0.011844020775882,-0.010679759961091],[0.012073458805385,-0.010744731606824],[0.012118440799462,-0.0107479485963],[0.012167226007189,-0.010741709609073],[0.012209950732023,-0.010727276082363],[0.012245797795188,-0.010707360422084],[0.012277689536272,-0.010681581316141],[0.0123139731879,-0.010641804976561],[0.012369203573027,-0.010561016780182],[0.012403605841688,-0.010469400122488],[0.012414689916845,-0.010393239285296],[0.012411273320579,-0.010316351986521],[0.012395543899781,-0.010251319762562],[0.012361915385283,-0.010170564891708],[0.012297424363712,-0.010063618334746],[0.012250154169861,-0.010005399600933],[0.012206296281309,-0.009960868120679],[0.012136799454815,-0.009856037858285],[0.012008775491046,-0.009639547494469],[0.011922649522751,-0.009471704855471],[0.011887959860779,-0.009519659090915],[0.011860193742329,-0.009571927857865],[0.011839878676022,-0.009627518139409],[0.011826405360462,-0.009692710645337],[0.011823019679249,-0.009751799717679],[0.01183004029163,-0.009914961612307],[0.01183258836099,-0.010152781415543],[0.011830931409205,-0.010271690611739],[0.011821431418154,-0.010321424677193],[0.011797460834797,-0.010398769651983],[0.011763108740623,-0.010472096097654],[0.011640701247777,-0.010648753961142]]]}}
]
}
