{
"type": "FeatureCollection",
"name": "squares",
"crs": { "type": "name", "properties": { "name": "urn:ogc:def:crs:OGC:1.3:CRS84" } },
"features": [
{"type":"Feature","properties":{"fid":1,"name_id":"sq_dolly_sist"},"geometry":{"type":"Polygon","coordinates":[[[0.01819430015733,-0.006396600356169],[0.018172219870736,-0.006591925967095],[0.018265636467866,-0.006884065141553],[0.018652890725058,-0.006887462108697],[0.018838025435734,-0.006727804652911],[0.018579855930939,-0.006274309538856],[0.01819430015733,-0.006396600356169]]]}},
{"type":"Feature","properties":{"fid":2,"name_id":"sq_fubsy"},"geometry":{"type":"Polygon","coordinates":[[[0.019240566045184,-0.00689510528477],[0.019225279692926,-0.007080239994069],[0.019286425101957,-0.007175355074047],[0.019379841699087,-0.00718214900833],[0.019420605305107,-0.007080239994069],[0.019452876493206,-0.006930773439778],[0.019340776576651,-0.006881517416195],[0.019240566045184,-0.00689510528477]]]}},
{"type":"Feature","properties":{"fid":3,"name_id":"sq_sator"},"geometry":{"type":"Polygon","coordinates":[[[0.013548947554602,-0.008038184727197],[0.013497993047076,-0.008802502331818],[0.01359310812779,-0.008921396181288],[0.013695017142841,-0.008870441674377],[0.013783338289218,-0.009006320359458],[0.014078874432866,-0.009019908227963],[0.014211356152431,-0.008901014378525],[0.014394792379523,-0.009074259701979],[0.014387998445186,-0.008422042013261],[0.014238531889778,-0.008425438980392],[0.014231737955442,-0.008265781525173],[0.014010935089498,-0.008184254313973],[0.013769750420545,-0.008126505872696],[0.013745971650367,-0.007970245384493],[0.013548947554602,-0.008038184727197]]]}},
{"type":"Feature","properties":{"fid":4,"name_id":"sq_cham"},"geometry":{"type":"Polygon","coordinates":[[[0.014537465000594,-0.008396564759772],[0.015014738887748,-0.008384675374811],[0.015271209908959,-0.0084101526283],[0.015130235771472,-0.009094641504733],[0.01507248732961,-0.008958762819685],[0.014394792379523,-0.009074259701979],[0.014387998445186,-0.008422042013261],[0.014238531889778,-0.008425438980392],[0.014537465000594,-0.008396564759772]]]}},
{"type":"Feature","properties":{"fid":5,"name_id":"sq_br_moons"},"geometry":{"type":"Polygon","coordinates":[[[0.015215159950681,-0.008231811853842],[0.015401993144941,-0.007966848417357],[0.015602414207874,-0.007868336370416],[0.016061004775602,-0.008058566530006],[0.016166310757821,-0.008112918004159],[0.016217265265346,-0.008168967961871],[0.016256330387782,-0.008232661095625],[0.016293697026634,-0.008315037548599],[0.016303887928139,-0.008435629881787],[0.016290300059466,-0.008499323015498],[0.016248687211654,-0.008580850226633],[0.016188391044415,-0.008765135693405],[0.01617395393395,-0.008823733376369],[0.016151024405563,-0.008884029542887],[0.016131491844345,-0.008917999214161],[0.01602788434571,-0.009049631690317],[0.015975231354601,-0.009105681647891],[0.015895402626144,-0.009162580847238],[0.01574338834536,-0.009236464882197],[0.015677147485577,-0.009279776213029],[0.015593072548161,-0.009323087543854],[0.015468234004724,-0.009336675412348],[0.015322164416484,-0.009237314123979],[0.015246581896988,-0.009194852034923],[0.015120894111759,-0.00910483240611],[0.015122959281241,-0.009077520351461],[0.015130235771472,-0.009094641504733],[0.015271209908959,-0.0084101526283],[0.015174150563921,-0.008400510971611],[0.015215159950681,-0.008231811853842]]]}},
{"type":"Feature","properties":{"fid":6,"name_id":"sq_barbican"},"geometry":{"type":"Polygon","coordinates":[[[0.016561208191142,-0.009190605826018],[0.01652384155229,-0.009297610290428],[0.016488173397023,-0.00935026328084],[0.01648307794627,-0.009401217787684],[0.016464394626844,-0.009433488975347],[0.016505158232864,-0.009543890406805],[0.016581589994153,-0.009608432782102],[0.016680102042035,-0.009618623683464],[0.016776915606333,-0.009593146430059],[0.016860141301958,-0.00956087524241],[0.016939970030414,-0.009450473810958],[0.017128501708258,-0.009368946600017],[0.017213425887467,-0.009265339102752],[0.017250792526319,-0.009165128572582],[0.016634242985262,-0.008925642390197],[0.016691991427124,-0.008978295380664],[0.01673105654956,-0.009041139272502],[0.016739548967481,-0.009115872549267],[0.016722564131639,-0.009161731605457],[0.016658021755441,-0.00919230430958],[0.016600273313578,-0.009199098243829],[0.016561208191142,-0.009190605826018]]]}},
{"type":"Feature","properties":{"fid":7,"name_id":"sq_bricjfields"},"geometry":{"type":"Polygon","coordinates":[[[0.020408273509307,-0.009902270437905],[0.020415485259554,-0.009974436658808],[0.020429902188115,-0.010045514960379],[0.020491744527101,-0.010220063746681],[0.020540988765866,-0.010312301110729],[0.020610846963522,-0.010395065120959],[0.02067029821239,-0.010440555408223],[0.020737779324637,-0.010472960913166],[0.020758198103655,-0.010457864144478],[0.02078088074538,-0.010450041909398],[0.020804858544449,-0.010449173145305],[0.020829343348746,-0.010455906148054],[0.020913434600432,-0.010520441045611],[0.021018399334571,-0.010583897834017],[0.021129185879017,-0.010636535282843],[0.021244682627473,-0.010677825240234],[0.021264309235733,-0.010683572874014],[0.021361122800031,-0.010656397137139],[0.021447687423085,-0.010686633593568],[0.021537841459164,-0.010703364614536],[0.021648403518822,-0.010705346412236],[0.021712708901956,-0.010693763775342],[0.021754882946091,-0.010717725236167],[0.021806191117414,-0.010738686750095],[0.021853078727216,-0.010751110665152],[0.021908034514136,-0.01075830615041],[0.02196139323724,-0.010718054018058],[0.021981069308256,-0.010697160742451],[0.021992503508994,-0.01067714332833],[0.022062607081851,-0.010531903187201],[0.022108334531728,-0.010401427051836],[0.022144235416505,-0.010244200031528],[0.022159672538185,-0.010106807466885],[0.022160771586754,-0.009968554750291],[0.022147520699505,-0.009830934128428],[0.022081279839723,-0.009766391753173],[0.021947745604191,-0.009707376500548],[0.021832477861057,-0.009668408377747],[0.02171440738554,-0.009639005486186],[0.021617593821242,-0.009659387288907],[0.02159309660037,-0.009656939094034],[0.021549090258129,-0.009643315599014],[0.021498699970349,-0.009608432782102],[0.021483871349484,-0.009606804255579],[0.021417172758309,-0.009611829749223],[0.021398548504563,-0.009629502750394],[0.021373225752156,-0.00963374020445],[0.02135667189857,-0.009628040428254],[0.021340740997021,-0.009611829749223],[0.021262610752148,-0.009569367660213],[0.021235816731133,-0.009563923245709],[0.021046233351716,-0.009538477244402],[0.020854974691946,-0.009535397989002],[0.020795527766499,-0.009603337331421],[0.020679575818617,-0.009655858645106],[0.020574472031469,-0.009727667672857],[0.020509071124422,-0.009788269598284],[0.020408273509307,-0.009902270437905]]]}},
{"type":"Feature","properties":{"fid":8,"name_id":"sq_sticken"},"geometry":{"type":"Polygon","coordinates":[[[0.016417686328279,-0.0239674123488],[0.016451655999963,-0.02407101983833],[0.016432972680537,-0.024118577374482],[0.01644656054921,-0.024271440883429],[0.016490721122399,-0.024337681737252],[0.016565454400103,-0.024390334723601],[0.016699634603253,-0.024405621074473],[0.016804940585472,-0.02438523927331],[0.01693402533787,-0.024342777187545],[0.017051220705178,-0.024271440883429],[0.017044426770841,-0.024047241070248],[0.017013854066326,-0.023884186660431],[0.016952708657296,-0.023795865521699],[0.016821925421314,-0.023678670164449],[0.016711523988342,-0.023724529217298],[0.016585836203113,-0.023758498886065],[0.016417686328279,-0.0239674123488]]]}},
{"type":"Feature","properties":{"fid":9,"name_id":"sq_hen_chickens"},"geometry":{"type":"Polygon","coordinates":[[[0.011834328376374,-0.008408454144734],[0.011817679954994,-0.008550309674042],[0.011810537815579,-0.008728683654337],[0.011815791260661,-0.008871416139794],[0.011836026859958,-0.009048782448535],[0.011806456524762,-0.009090313789229],[0.011758270765993,-0.009126835598314],[0.011700859571527,-0.00914580042527],[0.011637257676509,-0.009144583109155],[0.011577857355163,-0.009121817241737],[0.011554538096052,-0.009128435938464],[0.011529975371189,-0.009145462299062],[0.011513090268629,-0.00917012234187],[0.011506098642116,-0.009199179897725],[0.011509918011796,-0.009228821706168],[0.011361918460843,-0.009280286405076],[0.011182110680049,-0.009357906456867],[0.011157917934599,-0.009349298734838],[0.011133431083158,-0.009353477600898],[0.011112957720276,-0.009370325067803],[0.011103980435177,-0.009395273095219],[0.010961307814106,-0.009473403339032],[0.010910353306581,-0.009768939478512],[0.010631801998775,-0.009938787834418],[0.010421190034337,-0.009915009064596],[0.010363441592475,-0.009813100051056],[0.010271723478929,-0.009616075958123],[0.010203784135562,-0.009503976043128],[0.01035325069097,-0.00921523383767],[0.010495923312041,-0.009147294495176],[0.010574053556913,-0.008977446138882],[0.01056046568824,-0.008919697697725],[0.010608023228597,-0.008794009913997],[0.010713329210816,-0.008804200815382],[0.010852604864719,-0.008743055407068],[0.010917147240917,-0.00864114639319],[0.010968101748443,-0.008416946562563],[0.011114171336682,-0.008542634346416],[0.011200637651167,-0.008504211197741],[0.011290082486191,-0.008473350488192],[0.011496329753899,-0.008427159182725],[0.011600421455028,-0.008411595848677],[0.011705306992152,-0.008402859504121],[0.01178422311064,-0.008400810968687],[0.011834328376374,-0.008408454144734]]]}},
{"type":"Feature","properties":{"fid":10,"name_id":"sq_water_market"},"geometry":{"type":"Polygon","coordinates":[[[0.010421190034337,-0.009915009064596],[0.010283612864019,-0.010125621025813],[0.010264929544593,-0.010205449753013],[0.010275120446098,-0.010348122371789],[0.010419491550753,-0.010419458681153],[0.01058084749125,-0.010473810154944],[0.010692947407806,-0.010222434588585],[0.010691248924222,-0.010134113443602],[0.010631801998775,-0.009938787834418],[0.010421190034337,-0.009915009064596]]]}}
]
}
