{
"type": "FeatureCollection",
"name": "street",
"crs": { "type": "name", "properties": { "name": "urn:ogc:def:crs:OGC:1.3:CRS84" } },
"features": [
{"type":"Feature","properties":{"fid":1,"name_id":"street_small_god","type":"main"},"geometry":{"type":"LineString","coordinates":[[0.016221627680012,-0.008680500386613],[0.016332765952092,-0.008716644951111],[0.016443290907559,-0.008754623619852],[0.01655317228067,-0.008794425992899],[0.016662379981916,-0.008836041170915],[0.016770884106267,-0.008879457758156],[0.016878654941357,-0.008924663865583],[0.016985662975619,-0.008971647114123],[0.017091878906372,-0.009020394638056],[0.017197273647839,-0.009070893088542],[0.017301818339115,-0.009123128637272],[0.017405484352071,-0.009177086980255],[0.01750824329919,-0.009232753341739],[0.017610067041344,-0.009290112478253],[0.017710927695498,-0.009349148682784],[0.017810797642344,-0.009409845789075],[0.017909649533867,-0.009472187176056],[0.017932958303473,-0.00949546356906],[0.017955864363373,-0.009519136372678],[0.017978360972846,-0.009543198620555],[0.018000441511665,-0.009567643231731],[0.018022099482042,-0.009592463012726],[0.018043328510539,-0.009617650659657],[0.018064122349949,-0.009643198760386],[0.018084474881129,-0.009669099796701],[0.018104380114802,-0.009695346146532],[0.018123832193322,-0.009721930086188],[0.018142825392396,-0.009748843792635],[0.018161354122767,-0.009776079345796],[0.018179412931862,-0.009803628730882],[0.018196996505394,-0.009831483840751],[0.018214099668926,-0.009859636478291],[0.018230717389395,-0.009888078358839],[0.018246844776594,-0.00991680111261],[0.018262477084609,-0.009945796287166],[0.018277609713214,-0.009975055349904],[0.018292238209231,-0.010004569690563],[0.018306358267832,-0.010034330623759],[0.018319965733815,-0.010064329391543],[0.018333056602817,-0.010094557165976],[0.018345627022503,-0.010125005051728],[0.018357673293689,-0.010155664088695],[0.01836919187144,-0.010186525254637],[0.018409991871903,-0.010271606213242],[0.018449308738652,-0.010357382629209],[0.018487130622207,-0.010443828650886],[0.01852344612365,-0.010530918224812],[0.018558244298066,-0.010618625103567],[0.018591514657835,-0.010706922853688],[0.0186232471758,-0.010795784863632],[0.018653432288281,-0.010885184351796],[0.018682060897965,-0.010975094374591],[0.018709124376641,-0.011065487834561],[0.018734614567808,-0.011156337488548],[0.018758523789124,-0.011247615955906],[0.01878084483473,-0.011339295726751],[0.018801570977416,-0.011431349170252],[0.018820695970651,-0.01152374854296],[0.018838214050465,-0.011616465997167],[0.018854119937187,-0.011709473589303],[0.018868408837035,-0.011802743288351],[0.01888107644356,-0.011896246984303],[0.018892118938947,-0.011989956496625],[0.018901532995162,-0.012083843582756],[0.019042580643328,-0.013687691799512],[0.019042580643328,-0.013687691799512]]}},
{"type":"Feature","properties":{"fid":2,"name_id":"street_short","type":"main"},"geometry":{"type":"LineString","coordinates":[[0.024347792184017,-0.013554606522342],[0.022402699616569,-0.013618305458433],[0.021797559706696,-0.013645605002467],[0.020696478066176,-0.013650154926472],[0.019042580643328,-0.013687691799512],[0.017880075026994,-0.013736603482556],[0.01654694725562,-0.013786652646591]]}},
{"type":"Feature","properties":{"fid":3,"name_id":"street_attic_bee","type":"main"},"geometry":{"type":"LineString","coordinates":[[0.019042580643328,-0.013687691799512],[0.019041481900039,-0.015000975239842],[0.019010562136958,-0.015644106288913],[0.018899250989869,-0.016627354715866],[0.01899201027911,-0.016812873286449]]}},
{"type":"Feature","properties":{"fid":4,"name_id":"street_artificers","type":"main"},"geometry":{"type":"LineString","coordinates":[[0.019004378184342,-0.009008725289123],[0.019116924538357,-0.009178662772857],[0.019226718917562,-0.009350391117724],[0.019333732831609,-0.009523865762243],[0.019437938511652,-0.009699041691784],[0.019539308917544,-0.009875873450254],[0.019637817744861,-0.010054315151895],[0.019733439431724,-0.010234320493185],[0.019826149165433,-0.010415842764856],[0.019915922888905,-0.010598834864015],[0.020002737306919,-0.010783249306367],[0.020086569892156,-0.010969038238534],[0.020120942040513,-0.011040504051521],[0.020154107844185,-0.011112537630287],[0.020186057928363,-0.011185118613461],[0.020216783261876,-0.011258226484942],[0.020246275159749,-0.011331840579694],[0.020274525285655,-0.011405940089592],[0.020301525654274,-0.011480504069299],[0.020327268633547,-0.011555511442188],[0.020351746946834,-0.011630941006303],[0.020374953674976,-0.011706771440348],[0.020396882258242,-0.011782981309715],[0.02041752649819,-0.011859549072542],[0.020436880559417,-0.011936453085805],[0.020454938971208,-0.012013671611433],[0.020471696629081,-0.012091182822453],[0.020487148796234,-0.01216896480916],[0.020501291104882,-0.01224699558531],[0.020514119557487,-0.012325253094337],[0.020525630527897,-0.012403715215584],[0.02061641055069,-0.01302620089854],[0.020696478066176,-0.013650154926472],[0.020698432154259,-0.013687863992898],[0.020701035965851,-0.013725533772773],[0.020704288727212,-0.013763153072261],[0.020708189471761,-0.013800710712525],[0.020712737040364,-0.013838195533052],[0.02071793008168,-0.013875596394966],[0.020723767052561,-0.013912902184342],[0.02073024621851,-0.013950101815505],[0.020737365654197,-0.013987184234326],[0.020745123244034,-0.014024138421507],[0.020753516682799,-0.014060953395854],[0.020762543476322,-0.014097618217542],[0.020772200942229,-0.014134121991364],[0.020782486210738,-0.01417045386997],[0.020793396225508,-0.01420660305709],[0.020804927744554,-0.014242558810742],[0.020817077341205,-0.014278310446423],[0.020829841405123,-0.014313847340288],[0.020843216143378,-0.014349158932301],[0.020857197581573,-0.014384234729376],[0.020871781565028,-0.014419064308499],[0.020886963760009,-0.014453637319816],[0.020902739655023,-0.014487943489717],[0.020919104562152,-0.014521972623886],[0.020936053618451,-0.01455571461033],[0.02095358178739,-0.014589159422382],[0.02097168386035,-0.014622297121684],[0.020990354458177,-0.014655117861138],[0.021009588032771,-0.014687611887835],[0.021029378868743,-0.014719769545948],[0.021049721085107,-0.014751581279606],[0.021098237033776,-0.014811160793225],[0.021136441222617,-0.014850049130813],[0.021207595877002,-0.014907606014448],[0.021293327614569,-0.014959945374838],[0.02142981465748,-0.015030858385561],[0.021558350614783,-0.015090642549683]]}},
{"type":"Feature","properties":{"fid":5,"name_id":"street_merchan","type":"main"},"geometry":{"type":"LineString","coordinates":[[0.021314084486447,-0.010669116542001],[0.021395387810601,-0.010965421807607],[0.021471925494292,-0.011262993687523],[0.021543677824341,-0.01156175553861],[0.021610626320094,-0.011861630411236],[0.02167275373818,-0.012162541069099],[0.021694668835724,-0.012284831664459],[0.021714504902434,-0.012407476646638],[0.021732256222174,-0.01253044067319],[0.021747917679572,-0.012653688309731],[0.021761484761484,-0.01277718404015],[0.021772953558303,-0.012900892276843],[0.02178232076508,-0.013024777370967],[0.021789583682481,-0.013148803622716],[0.021794740217558,-0.013272935291605],[0.021797788884361,-0.013397136606774],[0.021798728804359,-0.01352137177729],[0.021797559706696,-0.013645605002467]]}},
{"type":"Feature","properties":{"fid":6,"name_id":"street_ettercap","type":"main"},"geometry":{"type":"LineString","coordinates":[[0.021797559706696,-0.013645605002467],[0.021792874337734,-0.013743391150048],[0.021786566818413,-0.013841086075886],[0.021778638885981,-0.013938662872387],[0.021769092723986,-0.014036094664492],[0.021757930961676,-0.014133354617083],[0.021745156673275,-0.014230415942369],[0.021730773377139,-0.014327251907265],[0.021714785034781,-0.014423835840757],[0.021697196049787,-0.014520141141248],[0.021678011266595,-0.014616141283881],[0.02165723596917,-0.014711809827849],[0.021634875879539,-0.014807120423673],[0.021610937156225,-0.014902046820465],[0.021585426392541,-0.014996562873153],[0.021558350614783,-0.015090642549683],[0.021539698734785,-0.015155561912112],[0.021519940716943,-0.015220153219399],[0.021499082325987,-0.015284397625954],[0.021477129647702,-0.015348276387399],[0.021454089087147,-0.015411770866042],[0.02142996736679,-0.015474862536309],[0.021404771524545,-0.015537532990154],[0.021378508911719,-0.015599763942427],[0.021351187190867,-0.015661537236212],[0.021322814333557,-0.015722834848119],[0.021293398618043,-0.015783638893548],[0.021262948626851,-0.015843931631906],[0.021231473244273,-0.015903695471782],[0.021198981653778,-0.015962912976079],[0.021165483335327,-0.016021566867103],[0.021130988062615,-0.016079640031604],[0.021095505900213,-0.016137115525768],[0.021059047200632,-0.016193976580161],[0.021021622601306,-0.016250206604624],[0.020983243021487,-0.01630578919311],[0.020855912739407,-0.016518697682782],[0.020725258240684,-0.016729582551011],[0.020591311678796,-0.016938391899994],[0.020454106017382,-0.017145074342706],[0.020313675022132,-0.017349579015541],[0.020170053252473,-0.017551855590836]]}},
{"type":"Feature","properties":{"fid":7,"name_id":"street_kicklebury","type":"main"},"geometry":{"type":"LineString","coordinates":[[0.01899201027911,-0.016812873286449],[0.019005412098021,-0.016829613416522],[0.019019102794094,-0.016846118129383],[0.019033078232759,-0.016862382440631],[0.01904733419345,-0.016878401438466],[0.019061866370888,-0.016894170285173],[0.019076670376373,-0.01690968421858],[0.019091741739116,-0.016924938553502],[0.019107075907587,-0.016939928683148],[0.019122668250886,-0.016954650080521],[0.019138514060147,-0.016969098299778],[0.019154608549957,-0.016983268977577],[0.019170946859801,-0.016997157834391],[0.019187524055532,-0.017010760675805],[0.019204335130858,-0.017024073393779],[0.019221375008859,-0.017037091967889],[0.019238638543513,-0.017049812466545],[0.019256120521256,-0.017062231048173],[0.019273815662555,-0.017074343962378],[0.0192917186235,-0.017086147551075],[0.019309823997422,-0.017097638249598],[0.019328126316521,-0.017108812587771],[0.019346620053522,-0.017119667190958],[0.019365299623341,-0.017130198781084],[0.019384159384774,-0.017140404177623],[0.019403193642197,-0.017150280298559],[0.01942239664729,-0.017159824161318],[0.019441762600772,-0.017169032883664],[0.019461285654151,-0.017177903684577],[0.01948095991149,-0.017186433885086],[0.019500779431191,-0.017194620909083],[0.019520738227785,-0.017202462284097],[0.019610901984742,-0.01725704059345],[0.019701974627485,-0.017310088389611],[0.019793930178338,-0.017361590541161],[0.019886742407784,-0.017411532357564],[0.019980384841944,-0.017459899593352],[0.020074830770132,-0.017506678452196],[0.020170053252473,-0.017551855590836],[0.021683575655258,-0.018375867236421],[0.022852342699697,-0.019062285940168],[0.023693360255484,-0.019538450264589]]}},
{"type":"Feature","properties":{"fid":8,"name_id":"street_alice","type":"street"},"geometry":{"type":"LineString","coordinates":[[0.0207102786028,-0.013817931057924],[0.021733291397361,-0.014310299261955]]}},
{"type":"Feature","properties":{"fid":9,"name_id":"street_dodney","type":"street"},"geometry":{"type":"LineString","coordinates":[[0.021020454589106,-0.014705268696471],[0.021256109930672,-0.014405769820145],[0.021354707599888,-0.01412808978686]]}},
{"type":"Feature","properties":{"fid":10,"name_id":"street_bernicks","type":"street"},"geometry":{"type":"LineString","coordinates":[[0.021280845741136,-0.014424321677407],[0.021256109930672,-0.014405769820145],[0.021660953196122,-0.014694692302029]]}},
{"type":"Feature","properties":{"fid":11,"name_id":"street_coper","type":"street"},"geometry":{"type":"LineString","coordinates":[[0.02174173777934,-0.014253433746493],[0.022426422963265,-0.014008450876778],[0.023307636211056,-0.014042462615147],[0.02375906475203,-0.014098118187014]]}},
{"type":"Feature","properties":{"fid":12,"name_id":"street_caulk","type":"street"},"geometry":{"type":"LineString","coordinates":[[0.022397174818434,-0.013618554697439],[0.02240850548274,-0.01401486181702]]}},
{"type":"Feature","properties":{"fid":13,"name_id":"street_caulk_yard","type":"yard"},"geometry":{"type":"LineString","coordinates":[[0.022083211008635,-0.013632718477932],[0.022075483652302,-0.013897139732989]]}},
{"type":"Feature","properties":{"fid":14,"name_id":"street_seckless","type":"street"},"geometry":{"type":"LineString","coordinates":[[0.02056442283775,-0.012669717104171],[0.02115562070066,-0.012972638842311],[0.021792124534557,-0.013209968766364]]}},
{"type":"Feature","properties":{"fid":15,"name_id":"street_foundlink","type":"street"},"geometry":{"type":"LineString","coordinates":[[0.021354151579142,-0.013046664034019],[0.021342685267297,-0.013241640774071],[0.021471002284081,-0.013373049763618],[0.021469451028059,-0.013646960823414]]}},
{"type":"Feature","properties":{"fid":16,"name_id":"street_bankrupt","type":"street"},"geometry":{"type":"LineString","coordinates":[[0.021130503151284,-0.012959768951893],[0.021158712676969,-0.013394693597184],[0.020987107991872,-0.013328216108369],[0.021242196037286,-0.013427159347529],[0.021331866820028,-0.013647529353183]]}},
{"type":"Feature","properties":{"fid":17,"name_id":"street_bookkepers","type":"street"},"geometry":{"type":"LineString","coordinates":[[0.018938847650273,-0.012508147312552],[0.018970625615613,-0.012514879166747],[0.019002282707292,-0.012522158279892],[0.019033809501514,-0.012529982485114],[0.019065196613274,-0.012538349453277],[0.019096434699147,-0.012547256693671],[0.019127514460069,-0.01255670155476],[0.019158426644109,-0.012566681224962],[0.019189162049219,-0.012577192733495],[0.019219711525976,-0.012588232951257],[0.019250065980305,-0.012599798591756],[0.019280216376186,-0.012611886212092],[0.019310153738343,-0.01262449221398],[0.019339869154917,-0.012637612844821],[0.01936935378012,-0.012651244198819],[0.019398598836865,-0.012665382218146],[0.019427595619381,-0.012680022694145],[0.019456335495803,-0.01269516126859],[0.019484809910746,-0.012710793434975],[0.019513010387845,-0.012726914539863],[0.019540928532284,-0.012743519784267],[0.019568556033291,-0.012760604225079],[0.019595884666616,-0.012778162776543],[0.019622906296975,-0.012796190211768],[0.019649612880475,-0.012814681164283],[0.019675996467006,-0.012833630129638],[0.01970204920261,-0.012853031467037],[0.019727763331817,-0.012872879401022],[0.019753131199955,-0.012893168023192],[0.019778145255429,-0.012913891293957],[0.019812368665121,-0.012939034413575],[0.019847025444956,-0.012963576741256],[0.019882105049249,-0.012987510809037],[0.019917596803657,-0.013010829334039],[0.019953489908425,-0.013033525220688],[0.019989773441669,-0.013055591562873],[0.020026436362702,-0.013077021646043],[0.020063467515395,-0.013097808949258],[0.02010085563157,-0.013117947147166],[0.020138589334426,-0.013137430111931],[0.020176657142009,-0.013156251915099],[0.020215047470695,-0.013174406829399],[0.020253748638724,-0.013191889330487],[0.020292748869749,-0.013208694098628],[0.020332036296422,-0.013224816020313],[0.020371598964006,-0.013240250189816],[0.020411424834008,-0.013254991910686],[0.020451501787848,-0.013269036697178],[0.020491817630543,-0.013282380275615],[0.020532360094418,-0.013295018585691],[0.020573116842842,-0.013306947781706],[0.020614075473976,-0.013318164233733],[0.020655223524554,-0.013328664528729]]}},
{"type":"Feature","properties":{"fid":18,"name_id":"street_threelamp","type":"street"},"geometry":{"type":"LineString","coordinates":[[0.019476542506483,-0.013677842596572],[0.019793492658734,-0.012925166663671]]}},
{"type":"Feature","properties":{"fid":19,"name_id":"street_passet","type":"street"},"geometry":{"type":"LineString","coordinates":[[0.018995752647226,-0.013155212181025],[0.019013431533583,-0.013151146160308],[0.019031178261219,-0.013147387276744],[0.019048987494627,-0.013143936660429],[0.01906685387951,-0.013140795348783],[0.019084772044388,-0.013137964286232],[0.019102736602212,-0.013135444323928],[0.019120742151988,-0.01313323621949],[0.019138783280394,-0.013131340636779],[0.019156854563415,-0.013129758145697],[0.019174950567968,-0.013128489222016],[0.019193065853538,-0.013127534247234],[0.019211194973814,-0.013126893508462],[0.019229332478324,-0.013126567198336],[0.019247472914078,-0.01312655541496],[0.019265610827201,-0.013126858161877],[0.01928374076458,-0.013127475348067],[0.019301857275497,-0.013128406787974],[0.019319954913274,-0.013129652201564],[0.019338028236903,-0.013131211214407],[0.019356071812689,-0.013133083357789],[0.019374080215879,-0.013135268068855],[0.019392048032297,-0.013137764690779],[0.019409969859966,-0.013140572472957],[0.019427840310737,-0.013143690571238],[0.019445654011908,-0.013147118048173],[0.019463405607838,-0.0131508538733],[0.019481089761557,-0.013154896923455],[0.019498701156372,-0.013159245983105],[0.019516234497466,-0.013163899744717],[0.019533684513485,-0.013168856809149],[0.019551045958131,-0.013174115686075],[0.019568313611732,-0.013179674794426],[0.019585482282814,-0.013185532462873],[0.019602546809663,-0.013191686930322],[0.019619502061875,-0.01319813634645],[0.0196363429419,-0.013204878772257],[0.019653064386571,-0.013211912180651],[0.019669661368633,-0.013219234457056]]}},
{"type":"Feature","properties":{"fid":20,"name_id":"street_1","type":"street"},"geometry":{"type":"LineString","coordinates":[[0.018963258607194,-0.012785723509491],[0.019342176595995,-0.012904615365268]]}},
{"type":"Feature","properties":{"fid":21,"name_id":"street_audit","type":"street"},"geometry":{"type":"LineString","coordinates":[[0.020165906856134,-0.013150936669027],[0.020177042399941,-0.013661944043734]]}},
{"type":"Feature","properties":{"fid":22,"name_id":"steet_scoone","type":"main"},"geometry":{"type":"LineString","coordinates":[[0.01033501140719,-0.01037771555208],[0.010200387168394,-0.010506081342502],[0.009458149842108,-0.011798627325549],[0.009261125746343,-0.012872068925857],[0.009223759107491,-0.013979480192321]]}},
{"type":"Feature","properties":{"fid":23,"name_id":"street_kings_down","type":"main"},"geometry":{"type":"LineString","coordinates":[[0.002483327003679,-0.013311976162674],[0.003910053214389,-0.013454648779853],[0.005577964094052,-0.013631291067673]]}},
{"type":"Feature","properties":{"fid":24,"name_id":"street_kings_way","type":"main"},"geometry":{"type":"LineString","coordinates":[[0.005577964094052,-0.013631291067673],[0.006977514567415,-0.013818124256572],[0.007721450377285,-0.013872475729679],[0.009223759107491,-0.013979480192321],[0.010150281902661,-0.014069499819586],[0.011148990250158,-0.014198584568056]]}},
{"type":"Feature","properties":{"fid":25,"name_id":"street_prouts","type":"main"},"geometry":{"type":"LineString","coordinates":[[0.009223759107491,-0.013979480192321],[0.00932481888075,-0.014973093057339],[0.009494667239168,-0.01564569253266],[0.009773218546973,-0.016308101104732],[0.009796997317152,-0.016376040445336],[0.011081050906791,-0.01798280584369]]}},
{"type":"Feature","properties":{"fid":26,"name_id":"street_seven_sleep","type":"main"},"geometry":{"type":"LineString","coordinates":[[0.007762730423813,-0.013875415970329],[0.007667098902592,-0.012816018968987],[0.007653511033918,-0.012214755794535],[0.007694274639939,-0.011355323119129],[0.007847138162515,-0.010451729868717],[0.008040765291111,-0.009928596933066],[0.008356683237768,-0.009327333752759],[0.009178749292511,-0.008342213285659]]}},
{"type":"Feature","properties":{"fid":27,"name_id":"street_speedwell","type":"main"},"geometry":{"type":"LineString","coordinates":[[0.007657744403066,-0.013867821412064],[0.007738435213127,-0.014616411516553],[0.007867519965525,-0.015217674684972],[0.008003398652259,-0.015829128752831],[0.008536722497691,-0.01724906097001]]}},
{"type":"Feature","properties":{"fid":28,"name_id":"street_park_line","type":"main"},"geometry":{"type":"LineString","coordinates":[[0.006396633181626,-0.018451587289227],[0.006928258543474,-0.018133970875173],[0.007838645744594,-0.017559883451574],[0.007979619882081,-0.017534406199006],[0.008536722497691,-0.01724906097001],[0.008626742127653,-0.017080911102722],[0.009773218546973,-0.016308101104732]]}}
]
}
