{
"type": "FeatureCollection",
"name": "main_streets",
"crs": { "type": "name", "properties": { "name": "urn:ogc:def:crs:OGC:1.3:CRS84" } },
"features": [
{"type":"Feature","properties":{"fid":1},"geometry":{"type":"Polygon","coordinates":[[[0.021374359435881,-0.006725703613616],[0.021075845637774,-0.006967602724147],[0.020996070398625,-0.0070473779627],[0.020743877707121,-0.007258396335579],[0.020229198744868,-0.007749914740313],[0.01917401210884,-0.008700399013134],[0.018620826987828,-0.009183295634501],[0.018129308578877,-0.009633639720399],[0.017895129651052,-0.009358286479376],[0.017581175484077,-0.009157561686717],[0.017377877293987,-0.009036612132113],[0.01713855157654,-0.008933676340928],[0.016713941432681,-0.008748391916723],[0.016258450551087,-0.008596561624597],[0.01617395393395,-0.008823733376369],[0.016448259032795,-0.00888997423536],[0.016666027376853,-0.008937988393392],[0.017262074527481,-0.009170428660609],[0.017490070433805,-0.009309067212492],[0.017255038735279,-0.009621171408804],[0.017112817628427,-0.009643933299498],[0.0169817853764,-0.009654810752008],[0.016878638700602,-0.009679960826344],[0.016567257928439,-0.009862671855286],[0.016384546896839,-0.010024795725954],[0.01608088630911,-0.010385070993816],[0.016034565202507,-0.010521460916543],[0.01583641380204,-0.01080453434088],[0.015792666090249,-0.010871442604776],[0.015723184430344,-0.011000112342995],[0.01583255873353,-0.011125178597902],[0.016681564652857,-0.012073741762991],[0.017128848620463,-0.011856769484544],[0.017445905828051,-0.012476919383547],[0.017623879884358,-0.012863926886796],[0.017699551645395,-0.013130883199355],[0.017745872751998,-0.01322352541011],[0.017833368175581,-0.013642988752817],[0.017485959876061,-0.013671296094937],[0.017004735046354,-0.013694456647578],[0.016598138666174,-0.013712470410741],[0.016595565271363,-0.013856580516001],[0.017864248913316,-0.013799965831802],[0.017900276440674,-0.014018704384314],[0.017907996625108,-0.014412433778318],[0.017938877362843,-0.014870498039766],[0.017946597547277,-0.015333709089701],[0.017923436993975,-0.015748025639073],[0.01785138193926,-0.016293585317732],[0.01768925806615,-0.016849438573714],[0.017357290135497,-0.01752881477331],[0.017182299288331,-0.017793874426277],[0.016701074458625,-0.018378035019329],[0.016459175346366,-0.017999746001135],[0.016026845018074,-0.017394998249339],[0.015408311312008,-0.016563437474652],[0.015280560522807,-0.016648713787012],[0.015766932142136,-0.017304929435074],[0.01626359734071,-0.01800231939582],[0.016590418481741,-0.018480970806454],[0.016150367969014,-0.01872029651129],[0.016006257859584,-0.018746030458027],[0.015228355111195,-0.018831817355921],[0.014671177719584,-0.018762061056337],[0.014035037434155,-0.018689415775201],[0.013481757549733,-0.018529865305318],[0.012712444389394,-0.018274095763796],[0.012360296889167,-0.018195493490165],[0.01235815189313,-0.018342690040629],[0.012816433645661,-0.018455098766586],[0.013108264006943,-0.018528596779674],[0.013356860240627,-0.018643167211778],[0.013908941088403,-0.018805218535508],[0.01402474385491,-0.018828379087561],[0.014444207209146,-0.018887567165014],[0.014629491635557,-0.018915874506398],[0.015020647646869,-0.018957048821129],[0.01522651923177,-0.018980209373161],[0.015888608691808,-0.018905931623849],[0.015967656937415,-0.018936461663765],[0.016152941363826,-0.019376512151894],[0.016186395496372,-0.01950518188505],[0.016315065236935,-0.019968392923594],[0.016430868003442,-0.02043417735548],[0.016498318952985,-0.020799364010386],[0.016556964349194,-0.021121273724905],[0.01656983132325,-0.021234503088865],[0.016266170735521,-0.021414640713177],[0.01606029915062,-0.02154073705007],[0.015792666090249,-0.021682273754621],[0.01542981742186,-0.021800649907417],[0.015478711923274,-0.021939613217102],[0.016031991807696,-0.021731168252526],[0.016544097375138,-0.021406920529283],[0.016572404718062,-0.021926746243988],[0.016574978112873,-0.022577815082132],[0.016585836203113,-0.023758498886065],[0.016563727737358,-0.024429529964343],[0.016511102925409,-0.025575876152634],[0.016490056084101,-0.025701916105339],[0.016448881767121,-0.026867663832152],[0.016592991876552,-0.026821342730633],[0.01663292625931,-0.025687086919044],[0.01675254235485,-0.025552659221216],[0.017046893031054,-0.025385528909005],[0.017452505743514,-0.025122902329759],[0.017938877362843,-0.024716305988037],[0.018528184774623,-0.024186186705191],[0.019048010526498,-0.023800177517347],[0.0194597536963,-0.023411594933827],[0.019724813361861,-0.023110507765722],[0.020242065718925,-0.022366796723839],[0.020656382283538,-0.021790356328916],[0.020908574975042,-0.021615365494304],[0.021397519989182,-0.02107752601608],[0.021986827400962,-0.020457337907307],[0.022182405406618,-0.020212865415635],[0.022443715436596,-0.019796550433838],[0.02255297425944,-0.019677599327326],[0.022872075216037,-0.019160346999972],[0.023270951411783,-0.019389379125214],[0.023659534028284,-0.019595250698201],[0.023681406871224,-0.019438272796155],[0.022964716446939,-0.019041970034515],[0.022363828784208,-0.018675261309458],[0.021773234700282,-0.018343293410326],[0.020595906624482,-0.017683217702092],[0.020360788911385,-0.017516918243961],[0.020343713943764,-0.01742459154676],[0.020815931871435,-0.01665643326243],[0.021195507589862,-0.016073559386386],[0.021467000730839,-0.015531859822388],[0.02161754432086,-0.015089235949586],[0.021710186530103,-0.014749547860544],[0.021798968647294,-0.014143513427678],[0.021849149843968,-0.013707323038708],[0.022619881556978,-0.013681589092431],[0.02330251003541,-0.013655997609266],[0.024347916098835,-0.01362754780524],[0.024341482612082,-0.013491157889896],[0.022462905441046,-0.01355034654222],[0.021847864081154,-0.013565786910655],[0.021832423712286,-0.013079415304476],[0.021801542974551,-0.012672818934564],[0.021750075078326,-0.012240488616491],[0.021608537439405,-0.011573978883453],[0.021361492461825,-0.010670717813044],[0.021263703458997,-0.010683584786877],[0.021456092677523,-0.011435127883297],[0.02161625854814,-0.012104098694571],[0.02171919434059,-0.013146323567817],[0.021734634709458,-0.013570933700133],[0.020751597891555,-0.013568360305394],[0.020638368519859,-0.012652231776577],[0.020471097857127,-0.01175926379734],[0.0201230012096,-0.010884803277949],[0.01960129041092,-0.009883259013471],[0.019141586513142,-0.009090587009996],[0.019300203218002,-0.008869341471423],[0.019910677176361,-0.008329537661429],[0.020427350145336,-0.007824543189151],[0.021155620876923,-0.0071966348606],[0.021500455781633,-0.006903267854337],[0.021374359435881,-0.006725703613616]],[[0.018983781947412,-0.009138144549752],[0.01913293255527,-0.009384020427144],[0.019511221592526,-0.010011928752095],[0.019776225305543,-0.010493090597182],[0.020046487713269,-0.011049006843504],[0.020250541886012,-0.011503051290788],[0.02028945260085,-0.011652209027954],[0.020414831570882,-0.012235869737832],[0.020473671251938,-0.0124000390911],[0.020532859332598,-0.012971332725196],[0.020607487782124,-0.013570933700133],[0.020144276716097,-0.013594094252784],[0.019127785765647,-0.013619828200171],[0.019090559535808,-0.013224299518984],[0.019039530650142,-0.01272047244047],[0.01900683539649,-0.012321550027893],[0.018963500910514,-0.011795827481575],[0.018876878247721,-0.01131515663703],[0.018744349938769,-0.01083798847283],[0.018615426336563,-0.010557047083623],[0.018462810709865,-0.010180087010025],[0.01825797831944,-0.009785470012083],[0.018983781947412,-0.009138144549752]],[[0.018115320670666,-0.009928596933066],[0.01823484163683,-0.010119577693312],[0.018416814806039,-0.010547788066318],[0.018507597616132,-0.010912616921012],[0.01858479946047,-0.011015552711578],[0.018618253593017,-0.011128782081159],[0.01872633617509,-0.011661474796554],[0.018761381363997,-0.011743174491577],[0.018800963820394,-0.012454079851908],[0.018849859126031,-0.012670245539816],[0.018871007863269,-0.012971027573014],[0.018901327022256,-0.013112869436149],[0.018957841470854,-0.013636655436245],[0.017928583783598,-0.01365328233177],[0.017843661754826,-0.013161763936277],[0.017820501201525,-0.013092282278197],[0.017654332523796,-0.012668211003594],[0.017465824495492,-0.012299222852827],[0.017247513876818,-0.011829980498955],[0.017542574561908,-0.011679488559859],[0.0177690333053,-0.01147876376868],[0.018131881973688,-0.011190543555458],[0.018098427841141,-0.010765933419395],[0.018000638838313,-0.010477713205487],[0.017826828743418,-0.01018554707231],[0.018115320670666,-0.009928596933066]],[[0.017967779948876,-0.013789055731661],[0.018185173098677,-0.013787085275047],[0.01876751049207,-0.013779378673908],[0.018976215975082,-0.01378148975955],[0.018978528866594,-0.014299204410177],[0.018965661892538,-0.014932259513147],[0.018968235287349,-0.015351722852734],[0.018947648128859,-0.015573034798444],[0.018914193996312,-0.01564251645577],[0.018878166468955,-0.016074846767501],[0.018826698572729,-0.016604966077062],[0.018831845362352,-0.016736209206881],[0.01901512668992,-0.017002432148899],[0.019166386687816,-0.017124791806417],[0.019269322480267,-0.01714280556929],[0.019609010595354,-0.017333236776705],[0.020056781292514,-0.017613736798088],[0.019656726749479,-0.018188782160219],[0.0195217072693,-0.018328197136791],[0.019315643586869,-0.01866625522313],[0.019223001373664,-0.018694562564549],[0.018816249702973,-0.019352206865393],[0.018449322943641,-0.01971736058535],[0.018014256636043,-0.020197434009571],[0.017323836002951,-0.019245269023974],[0.016757689144473,-0.018501557963872],[0.017148845155785,-0.018097534999112],[0.017208033236444,-0.018017759763924],[0.017447358953892,-0.01759314964057],[0.017673817697283,-0.017145378963986],[0.017730432383131,-0.017001268860954],[0.017817927806714,-0.016803117469108],[0.017956891126522,-0.016324466054216],[0.018003212233125,-0.016085140346341],[0.018059826918972,-0.015333709089701],[0.018038035406222,-0.014982317615712],[0.018003212233125,-0.014474195251826],[0.017998065443502,-0.013895181437038],[0.017967779948876,-0.013789055731661]],[[0.019129071644797,-0.013769084509761],[0.020644801123805,-0.013726623498414],[0.020710422688686,-0.014152520308857],[0.020772184161515,-0.014382839127474],[0.020817218568786,-0.01447162124185],[0.020885413528367,-0.014681352903211],[0.020962615369404,-0.014761128136315],[0.021053970881296,-0.014882077683225],[0.02114789978789,-0.014965713008177],[0.021483727796397,-0.01514327723643],[0.02129715668056,-0.015618068541694],[0.020972908948208,-0.016217669483931],[0.020599766716534,-0.016796683267669],[0.020148135946473,-0.017443892006125],[0.019922963910118,-0.017351249801153],[0.019566548744001,-0.017146664931678],[0.019225573946092,-0.016951086943045],[0.019195979907028,-0.016808263543327],[0.01896566108127,-0.016640992894875],[0.018997828515036,-0.016387513527335],[0.019063450079916,-0.015834233688452],[0.019104624395135,-0.015080229068444],[0.019123924855394,-0.014330084537755],[0.019129071644797,-0.013769084509761]],[[0.020777330950917,-0.013721476709159],[0.021732060385063,-0.013720190011845],[0.02168316588574,-0.014227148752903],[0.021632984689067,-0.014570696934665],[0.021604677347354,-0.01471223363861],[0.021527475506317,-0.014997880440842],[0.021114445656774,-0.014727674006307],[0.02104110390779,-0.014641465286648],[0.020800491503228,-0.013902901030322],[0.020777330950917,-0.013721476709159]],[[0.020179205575476,-0.017648782326924],[0.020561827604712,-0.017828203947854],[0.021217382352394,-0.018177310234264],[0.022118070536336,-0.018697135959224],[0.022769139423586,-0.019101158922612],[0.022487907989171,-0.019600803084714],[0.022395997175953,-0.019638998407429],[0.02218755219624,-0.019991553475487],[0.022028136181796,-0.020216252786231],[0.021472281983687,-0.020829694131752],[0.021107921210087,-0.021225588070466],[0.020849386894383,-0.021504709525254],[0.020566313465144,-0.021702860911636],[0.020239492324113,-0.022160925154481],[0.020175157453832,-0.022256140755345],[0.019953845500063,-0.022616416001299],[0.019807161995821,-0.022822287570015],[0.019577098301514,-0.023103349404851],[0.019436593142999,-0.023270058230951],[0.019150946318949,-0.023537691268995],[0.018828139088062,-0.023792351453809],[0.018384074665192,-0.024152732575621],[0.017995492048691,-0.024515581211283],[0.017511693824173,-0.024927324342758],[0.017062024975713,-0.025249341420369],[0.016667620326078,-0.025449723438961],[0.016675274226559,-0.02513898135891],[0.016695927669002,-0.024514361320525],[0.016711523988342,-0.023724529217298],[0.016716514827492,-0.023231457311961],[0.016708794643059,-0.022739938942564],[0.016708794643059,-0.022106883867477],[0.016688207484569,-0.021708007700889],[0.016692373184757,-0.021278287128689],[0.016881212095413,-0.021159874644446],[0.017038189178901,-0.021067232437531],[0.017696978250584,-0.020601448007487],[0.01799291865388,-0.020393003041113],[0.018259610310158,-0.020837299056982],[0.018535904959056,-0.021365746215171],[0.018601159918176,-0.021200465704361],[0.018090707656708,-0.02027462688725],[0.018203095590823,-0.020153822209295],[0.018381501270381,-0.019965819528939],[0.018438115956228,-0.019896337873239],[0.018780377466126,-0.019525769042346],[0.018869211509279,-0.0194257048781],[0.019161239898194,-0.01900851671453],[0.019310496797247,-0.018769191010088],[0.019410859194886,-0.018735736879333],[0.019591221440154,-0.018409702934958],[0.019768481363302,-0.018230281314601],[0.020179205575476,-0.017648782326924]],[[0.016688049771997,-0.021109674042595],[0.016560509095585,-0.020387664159068],[0.016541523980327,-0.0202823470712],[0.016401762198343,-0.019762726318094],[0.016281611104389,-0.019301883706618],[0.016093753283167,-0.01886440661297],[0.016307345052501,-0.018774337799434],[0.016379400107217,-0.018733163484659],[0.016634166193532,-0.018591626777548],[0.016904372648715,-0.018959622215799],[0.016973854308619,-0.019062558002584],[0.017467946112382,-0.019685319511304],[0.01754514795672,-0.019783108508332],[0.017895129651052,-0.02026948009795],[0.017185242239365,-0.020785418107287],[0.016688049771997,-0.021109674042595]]]}}
]
}
